[
  {
    "_id": "594d77ec37275a4d97dddb0c",
    "status": "waiting",
    "missionName": "Lorem Ipsum Mission Title",
    "rating": 4,
    "startingPoint": {
      "coordinates": [
        73,
        56
      ],
      "line1": "Address 1",
      "city": "City 1",
      "postalCode": "10000",
      "primary": true,
      "state": "state"
    },
    "destinationPoint": {
      "coordinates": [
        -3,
        69
      ],
      "line1": "Address 1",
      "city": "City 2",
      "postalCode": "20000",
      "primary": false,
      "state": "state"
    },
    "zones": [
      {
        "style": {
          "fillColor": "#FFFF00"
        },
        "description": "RTFZ#1",
        "location": {
          "type": "Polygon",
          "coordinates": [
            [
              [
                -77.0361864566803,
                38.907604678669216
              ],
              [
                -77.03628301620483,
                38.90740430841377
              ],
              [
                -77.03538715839386,
                38.90742518034177
              ],
              [
                -77.03549444675446,
                38.907721561057016
              ],
              [
                -77.0361864566803,
                38.907604678669216
              ]
            ]
          ]
        }
      },
      {
        "description": "RTFZ#2",
        "location": {
          "type": "Point",
          "coordinates": [
            -77.03840732574463,
            38.90732916942216
          ]
        }
      }
    ]
  },
  {
    "status": "waiting",
    "missionName": "Lorem Ipsum Mission Title",
    "rating": 4,
    "startingPoint": {
      "coordinates": [
        73,
        56
      ],
      "line1": "Address 1",
      "city": "City 1",
      "postalCode": "10000",
      "primary": true,
      "state": "state"
    },
    "destinationPoint": {
      "coordinates": [
        -3,
        69
      ],
      "line1": "Address 1",
      "city": "City 2",
      "postalCode": "20000",
      "primary": false,
      "state": "state"
    }
  },
  {
    "status": "waiting",
    "missionName": "Lorem Ipsum Mission Title",
    "rating": 4,
    "startingPoint": {
      "coordinates": [
        73,
        56
      ],
      "line1": "Address 1",
      "city": "City 1",
      "postalCode": "10000",
      "primary": true,
      "state": "state"
    },
    "destinationPoint": {
      "coordinates": [
        -3,
        69
      ],
      "line1": "Address 1",
      "city": "City 2",
      "postalCode": "20000",
      "primary": false,
      "state": "state"
    }
  },
  {
    "status": "waiting",
    "missionName": "Lorem Ipsum Mission Title",
    "rating": 4,
    "startingPoint": {
      "coordinates": [
        73,
        56
      ],
      "line1": "Address 1",
      "city": "City 1",
      "postalCode": "10000",
      "primary": true,
      "state": "state"
    },
    "destinationPoint": {
      "coordinates": [
        -3,
        69
      ],
      "line1": "Address 1",
      "city": "City 2",
      "postalCode": "20000",
      "primary": false,
      "state": "state"
    }
  },
  {
    "status": "waiting",
    "missionName": "Lorem Ipsum Mission Title",
    "rating": 4,
    "startingPoint": {
      "coordinates": [
        73,
        56
      ],
      "line1": "Address 1",
      "city": "City 1",
      "postalCode": "10000",
      "primary": true,
      "state": "state"
    },
    "destinationPoint": {
      "coordinates": [
        -3,
        69
      ],
      "line1": "Address 1",
      "city": "City 2",
      "postalCode": "20000",
      "primary": false,
      "state": "state"
    }
  },
  {
    "status": "waiting",
    "missionName": "Lorem Ipsum Mission Title",
    "rating": 4,
    "startingPoint": {
      "coordinates": [
        73,
        56
      ],
      "line1": "Address 1",
      "city": "City 1",
      "postalCode": "10000",
      "primary": true,
      "state": "state"
    },
    "destinationPoint": {
      "coordinates": [
        -3,
        69
      ],
      "line1": "Address 1",
      "city": "City 2",
      "postalCode": "20000",
      "primary": false,
      "state": "state"
    }
  },
  {
    "status": "waiting",
    "missionName": "Lorem Ipsum Mission Title",
    "rating": 4,
    "startingPoint": {
      "coordinates": [
        73,
        56
      ],
      "line1": "Address 1",
      "city": "City 1",
      "postalCode": "10000",
      "primary": true,
      "state": "state"
    },
    "destinationPoint": {
      "coordinates": [
        -3,
        69
      ],
      "line1": "Address 1",
      "city": "City 2",
      "postalCode": "20000",
      "primary": false,
      "state": "state"
    }
  },
  {
    "status": "waiting",
    "missionName": "Lorem Ipsum Mission Title",
    "rating": 4,
    "startingPoint": {
      "coordinates": [
        73,
        56
      ],
      "line1": "Address 1",
      "city": "City 1",
      "postalCode": "10000",
      "primary": true,
      "state": "state"
    },
    "destinationPoint": {
      "coordinates": [
        -3,
        69
      ],
      "line1": "Address 1",
      "city": "City 2",
      "postalCode": "20000",
      "primary": false,
      "state": "state"
    }
  },
  {
    "status": "waiting",
    "missionName": "Lorem Ipsum Mission Title",
    "rating": 4,
    "startingPoint": {
      "coordinates": [
        73,
        56
      ],
      "line1": "Address 1",
      "city": "City 1",
      "postalCode": "10000",
      "primary": true,
      "state": "state"
    },
    "destinationPoint": {
      "coordinates": [
        -3,
        69
      ],
      "line1": "Address 1",
      "city": "City 2",
      "postalCode": "20000",
      "primary": false,
      "state": "state"
    }
  },
  {
    "status": "waiting",
    "missionName": "Lorem Ipsum Mission Title",
    "rating": 4,
    "startingPoint": {
      "coordinates": [
        73,
        56
      ],
      "line1": "Address 1",
      "city": "City 1",
      "postalCode": "10000",
      "primary": true,
      "state": "state"
    },
    "destinationPoint": {
      "coordinates": [
        -3,
        69
      ],
      "line1": "Address 1",
      "city": "City 2",
      "postalCode": "20000",
      "primary": false,
      "state": "state"
    }
  },
  {
    "status": "waiting",
    "missionName": "Lorem Ipsum Mission Title",
    "rating": 4,
    "startingPoint": {
      "coordinates": [
        73,
        56
      ],
      "line1": "Address 1",
      "city": "City 1",
      "postalCode": "10000",
      "primary": true,
      "state": "state"
    },
    "destinationPoint": {
      "coordinates": [
        -3,
        69
      ],
      "line1": "Address 1",
      "city": "City 2",
      "postalCode": "20000",
      "primary": false,
      "state": "state"
    }
  },
  {
    "status": "waiting",
    "missionName": "Lorem Ipsum Mission Title",
    "rating": 4,
    "startingPoint": {
      "coordinates": [
        73,
        56
      ],
      "line1": "Address 1",
      "city": "City 1",
      "postalCode": "10000",
      "primary": true,
      "state": "state"
    },
    "destinationPoint": {
      "coordinates": [
        -3,
        69
      ],
      "line1": "Address 1",
      "city": "City 2",
      "postalCode": "20000",
      "primary": false,
      "state": "state"
    }
  },
  {
    "status": "waiting",
    "missionName": "Lorem Ipsum Mission Title",
    "rating": 4,
    "startingPoint": {
      "coordinates": [
        73,
        56
      ],
      "line1": "Address 1",
      "city": "City 1",
      "postalCode": "10000",
      "primary": true,
      "state": "state"
    },
    "destinationPoint": {
      "coordinates": [
        -3,
        69
      ],
      "line1": "Address 1",
      "city": "City 2",
      "postalCode": "20000",
      "primary": false,
      "state": "state"
    }
  },
  {
    "status": "waiting",
    "missionName": "Lorem Ipsum Mission Title",
    "rating": 4,
    "startingPoint": {
      "coordinates": [
        73,
        56
      ],
      "line1": "Address 1",
      "city": "City 1",
      "postalCode": "10000",
      "primary": true,
      "state": "state"
    },
    "destinationPoint": {
      "coordinates": [
        -3,
        69
      ],
      "line1": "Address 1",
      "city": "City 2",
      "postalCode": "20000",
      "primary": false,
      "state": "state"
    }
  },
  {
    "status": "waiting",
    "missionName": "Lorem Ipsum Mission Title",
    "rating": 4,
    "startingPoint": {
      "coordinates": [
        73,
        56
      ],
      "line1": "Address 1",
      "city": "City 1",
      "postalCode": "10000",
      "primary": true,
      "state": "state"
    },
    "destinationPoint": {
      "coordinates": [
        -3,
        69
      ],
      "line1": "Address 1",
      "city": "City 2",
      "postalCode": "20000",
      "primary": false,
      "state": "state"
    }
  },
  {
    "status": "waiting",
    "missionName": "Lorem Ipsum Mission Title",
    "rating": 4,
    "startingPoint": {
      "coordinates": [
        73,
        56
      ],
      "line1": "Address 1",
      "city": "City 1",
      "postalCode": "10000",
      "primary": true,
      "state": "state"
    },
    "destinationPoint": {
      "coordinates": [
        -3,
        69
      ],
      "line1": "Address 1",
      "city": "City 2",
      "postalCode": "20000",
      "primary": false,
      "state": "state"
    }
  },
  {
    "status": "waiting",
    "missionName": "Lorem Ipsum Mission Title",
    "rating": 4,
    "startingPoint": {
      "coordinates": [
        73,
        56
      ],
      "line1": "Address 1",
      "city": "City 1",
      "postalCode": "10000",
      "primary": true,
      "state": "state"
    },
    "destinationPoint": {
      "coordinates": [
        -3,
        69
      ],
      "line1": "Address 1",
      "city": "City 2",
      "postalCode": "20000",
      "primary": false,
      "state": "state"
    }
  },
  {
    "status": "waiting",
    "missionName": "Lorem Ipsum Mission Title",
    "rating": 4,
    "startingPoint": {
      "coordinates": [
        73,
        56
      ],
      "line1": "Address 1",
      "city": "City 1",
      "postalCode": "10000",
      "primary": true,
      "state": "state"
    },
    "destinationPoint": {
      "coordinates": [
        -3,
        69
      ],
      "line1": "Address 1",
      "city": "City 2",
      "postalCode": "20000",
      "primary": false,
      "state": "state"
    }
  },
  {
    "status": "waiting",
    "missionName": "Lorem Ipsum Mission Title",
    "rating": 4,
    "startingPoint": {
      "coordinates": [
        73,
        56
      ],
      "line1": "Address 1",
      "city": "City 1",
      "postalCode": "10000",
      "primary": true,
      "state": "state"
    },
    "destinationPoint": {
      "coordinates": [
        -3,
        69
      ],
      "line1": "Address 1",
      "city": "City 2",
      "postalCode": "20000",
      "primary": false,
      "state": "state"
    }
  },
  {
    "status": "waiting",
    "missionName": "Lorem Ipsum Mission Title",
    "rating": 4,
    "startingPoint": {
      "coordinates": [
        73,
        56
      ],
      "line1": "Address 1",
      "city": "City 1",
      "postalCode": "10000",
      "primary": true,
      "state": "state"
    },
    "destinationPoint": {
      "coordinates": [
        -3,
        69
      ],
      "line1": "Address 1",
      "city": "City 2",
      "postalCode": "20000",
      "primary": false,
      "state": "state"
    }
  },
  {
    "status": "waiting",
    "missionName": "Lorem Ipsum Mission Title",
    "rating": 4,
    "startingPoint": {
      "coordinates": [
        73,
        56
      ],
      "line1": "Address 1",
      "city": "City 1",
      "postalCode": "10000",
      "primary": true,
      "state": "state"
    },
    "destinationPoint": {
      "coordinates": [
        -3,
        69
      ],
      "line1": "Address 1",
      "city": "City 2",
      "postalCode": "20000",
      "primary": false,
      "state": "state"
    }
  },
  {
    "status": "waiting",
    "missionName": "Lorem Ipsum Mission Title",
    "rating": 4,
    "startingPoint": {
      "coordinates": [
        73,
        56
      ],
      "line1": "Address 1",
      "city": "City 1",
      "postalCode": "10000",
      "primary": true,
      "state": "state"
    },
    "destinationPoint": {
      "coordinates": [
        -3,
        69
      ],
      "line1": "Address 1",
      "city": "City 2",
      "postalCode": "20000",
      "primary": false,
      "state": "state"
    }
  },
  {
    "status": "waiting",
    "missionName": "Lorem Ipsum Mission Title",
    "rating": 4,
    "startingPoint": {
      "coordinates": [
        73,
        56
      ],
      "line1": "Address 1",
      "city": "City 1",
      "postalCode": "10000",
      "primary": true,
      "state": "state"
    },
    "destinationPoint": {
      "coordinates": [
        -3,
        69
      ],
      "line1": "Address 1",
      "city": "City 2",
      "postalCode": "20000",
      "primary": false,
      "state": "state"
    }
  },
  {
    "status": "waiting",
    "missionName": "Lorem Ipsum Mission Title",
    "rating": 4,
    "startingPoint": {
      "coordinates": [
        73,
        56
      ],
      "line1": "Address 1",
      "city": "City 1",
      "postalCode": "10000",
      "primary": true,
      "state": "state"
    },
    "destinationPoint": {
      "coordinates": [
        -3,
        69
      ],
      "line1": "Address 1",
      "city": "City 2",
      "postalCode": "20000",
      "primary": false,
      "state": "state"
    }
  },
  {
    "status": "waiting",
    "missionName": "Lorem Ipsum Mission Title",
    "rating": 4,
    "startingPoint": {
      "coordinates": [
        73,
        56
      ],
      "line1": "Address 1",
      "city": "City 1",
      "postalCode": "10000",
      "primary": true,
      "state": "state"
    },
    "destinationPoint": {
      "coordinates": [
        -3,
        69
      ],
      "line1": "Address 1",
      "city": "City 2",
      "postalCode": "20000",
      "primary": false,
      "state": "state"
    }
  },
  {
    "status": "waiting",
    "missionName": "Lorem Ipsum Mission Title",
    "rating": 4,
    "startingPoint": {
      "coordinates": [
        73,
        56
      ],
      "line1": "Address 1",
      "city": "City 1",
      "postalCode": "10000",
      "primary": true,
      "state": "state"
    },
    "destinationPoint": {
      "coordinates": [
        -3,
        69
      ],
      "line1": "Address 1",
      "city": "City 2",
      "postalCode": "20000",
      "primary": false,
      "state": "state"
    }
  },
  {
    "status": "waiting",
    "missionName": "Lorem Ipsum Mission Title",
    "rating": 4,
    "startingPoint": {
      "coordinates": [
        73,
        56
      ],
      "line1": "Address 1",
      "city": "City 1",
      "postalCode": "10000",
      "primary": true,
      "state": "state"
    },
    "destinationPoint": {
      "coordinates": [
        -3,
        69
      ],
      "line1": "Address 1",
      "city": "City 2",
      "postalCode": "20000",
      "primary": false,
      "state": "state"
    }
  },
  {
    "status": "waiting",
    "missionName": "Lorem Ipsum Mission Title",
    "rating": 4,
    "startingPoint": {
      "coordinates": [
        73,
        56
      ],
      "line1": "Address 1",
      "city": "City 1",
      "postalCode": "10000",
      "primary": true,
      "state": "state"
    },
    "destinationPoint": {
      "coordinates": [
        -3,
        69
      ],
      "line1": "Address 1",
      "city": "City 2",
      "postalCode": "20000",
      "primary": false,
      "state": "state"
    }
  },
  {
    "status": "waiting",
    "missionName": "Lorem Ipsum Mission Title",
    "rating": 4,
    "startingPoint": {
      "coordinates": [
        73,
        56
      ],
      "line1": "Address 1",
      "city": "City 1",
      "postalCode": "10000",
      "primary": true,
      "state": "state"
    },
    "destinationPoint": {
      "coordinates": [
        -3,
        69
      ],
      "line1": "Address 1",
      "city": "City 2",
      "postalCode": "20000",
      "primary": false,
      "state": "state"
    }
  },
  {
    "status": "waiting",
    "missionName": "Lorem Ipsum Mission Title",
    "rating": 4,
    "startingPoint": {
      "coordinates": [
        73,
        56
      ],
      "line1": "Address 1",
      "city": "City 1",
      "postalCode": "10000",
      "primary": true,
      "state": "state"
    },
    "destinationPoint": {
      "coordinates": [
        -3,
        69
      ],
      "line1": "Address 1",
      "city": "City 2",
      "postalCode": "20000",
      "primary": false,
      "state": "state"
    }
  },
  {
    "status": "waiting",
    "missionName": "Lorem Ipsum Mission Title",
    "rating": 4,
    "startingPoint": {
      "coordinates": [
        73,
        56
      ],
      "line1": "Address 1",
      "city": "City 1",
      "postalCode": "10000",
      "primary": true,
      "state": "state"
    },
    "destinationPoint": {
      "coordinates": [
        -3,
        69
      ],
      "line1": "Address 1",
      "city": "City 2",
      "postalCode": "20000",
      "primary": false,
      "state": "state"
    }
  },
  {
    "status": "waiting",
    "missionName": "Lorem Ipsum Mission Title",
    "rating": 4,
    "startingPoint": {
      "coordinates": [
        73,
        56
      ],
      "line1": "Address 1",
      "city": "City 1",
      "postalCode": "10000",
      "primary": true,
      "state": "state"
    },
    "destinationPoint": {
      "coordinates": [
        -3,
        69
      ],
      "line1": "Address 1",
      "city": "City 2",
      "postalCode": "20000",
      "primary": false,
      "state": "state"
    }
  },
  {
    "status": "waiting",
    "missionName": "Lorem Ipsum Mission Title",
    "rating": 4,
    "startingPoint": {
      "coordinates": [
        73,
        56
      ],
      "line1": "Address 1",
      "city": "City 1",
      "postalCode": "10000",
      "primary": true,
      "state": "state"
    },
    "destinationPoint": {
      "coordinates": [
        -3,
        69
      ],
      "line1": "Address 1",
      "city": "City 2",
      "postalCode": "20000",
      "primary": false,
      "state": "state"
    }
  },
  {
    "status": "waiting",
    "missionName": "Lorem Ipsum Mission Title",
    "rating": 4,
    "startingPoint": {
      "coordinates": [
        73,
        56
      ],
      "line1": "Address 1",
      "city": "City 1",
      "postalCode": "10000",
      "primary": true,
      "state": "state"
    },
    "destinationPoint": {
      "coordinates": [
        -3,
        69
      ],
      "line1": "Address 1",
      "city": "City 2",
      "postalCode": "20000",
      "primary": false,
      "state": "state"
    }
  },
  {
    "status": "waiting",
    "missionName": "Lorem Ipsum Mission Title",
    "rating": 4,
    "startingPoint": {
      "coordinates": [
        73,
        56
      ],
      "line1": "Address 1",
      "city": "City 1",
      "postalCode": "10000",
      "primary": true,
      "state": "state"
    },
    "destinationPoint": {
      "coordinates": [
        -3,
        69
      ],
      "line1": "Address 1",
      "city": "City 2",
      "postalCode": "20000",
      "primary": false,
      "state": "state"
    }
  },
  {
    "status": "waiting",
    "missionName": "Lorem Ipsum Mission Title",
    "rating": 4,
    "startingPoint": {
      "coordinates": [
        73,
        56
      ],
      "line1": "Address 1",
      "city": "City 1",
      "postalCode": "10000",
      "primary": true,
      "state": "state"
    },
    "destinationPoint": {
      "coordinates": [
        -3,
        69
      ],
      "line1": "Address 1",
      "city": "City 2",
      "postalCode": "20000",
      "primary": false,
      "state": "state"
    }
  },
  {
    "status": "waiting",
    "missionName": "Lorem Ipsum Mission Title",
    "rating": 4,
    "startingPoint": {
      "coordinates": [
        73,
        56
      ],
      "line1": "Address 1",
      "city": "City 1",
      "postalCode": "10000",
      "primary": true,
      "state": "state"
    },
    "destinationPoint": {
      "coordinates": [
        -3,
        69
      ],
      "line1": "Address 1",
      "city": "City 2",
      "postalCode": "20000",
      "primary": false,
      "state": "state"
    }
  },
  {
    "status": "waiting",
    "missionName": "Lorem Ipsum Mission Title",
    "rating": 4,
    "startingPoint": {
      "coordinates": [
        73,
        56
      ],
      "line1": "Address 1",
      "city": "City 1",
      "postalCode": "10000",
      "primary": true,
      "state": "state"
    },
    "destinationPoint": {
      "coordinates": [
        -3,
        69
      ],
      "line1": "Address 1",
      "city": "City 2",
      "postalCode": "20000",
      "primary": false,
      "state": "state"
    }
  },
  {
    "status": "completed",
    "missionName": "Lorem Ipsum Mission Title",
    "rating": 4,
    "startingPoint": {
      "coordinates": [
        73,
        56
      ],
      "line1": "Address 1",
      "city": "City 1",
      "postalCode": "10000",
      "primary": true,
      "state": "state"
    },
    "destinationPoint": {
      "coordinates": [
        -3,
        69
      ],
      "line1": "Address 1",
      "city": "City 2",
      "postalCode": "20000",
      "primary": false,
      "state": "state"
    },
    "startedAt": "2016-11-01T02:08:01",
    "completedAt": "2016-11-01T05:53:23"
  },
  {
    "status": "completed",
    "missionName": "Lorem Ipsum Mission Title",
    "rating": 4,
    "startingPoint": {
      "coordinates": [
        73,
        56
      ],
      "line1": "Address 1",
      "city": "City 1",
      "postalCode": "10000",
      "primary": true,
      "state": "state"
    },
    "destinationPoint": {
      "coordinates": [
        -3,
        69
      ],
      "line1": "Address 1",
      "city": "City 2",
      "postalCode": "20000",
      "primary": false,
      "state": "state"
    },
    "startedAt": "2016-11-01T02:08:01",
    "completedAt": "2016-11-01T05:53:23"
  },
  {
    "status": "completed",
    "missionName": "Lorem Ipsum Mission Title",
    "rating": 4,
    "startingPoint": {
      "coordinates": [
        73,
        56
      ],
      "line1": "Address 1",
      "city": "City 1",
      "postalCode": "10000",
      "primary": true,
      "state": "state"
    },
    "destinationPoint": {
      "coordinates": [
        -3,
        69
      ],
      "line1": "Address 1",
      "city": "City 2",
      "postalCode": "20000",
      "primary": false,
      "state": "state"
    },
    "startedAt": "2016-11-01T02:08:01",
    "completedAt": "2016-11-01T05:53:23"
  },
  {
    "status": "completed",
    "missionName": "Lorem Ipsum Mission Title",
    "rating": 4,
    "startingPoint": {
      "coordinates": [
        73,
        56
      ],
      "line1": "Address 1",
      "city": "City 1",
      "postalCode": "10000",
      "primary": true,
      "state": "state"
    },
    "destinationPoint": {
      "coordinates": [
        -3,
        69
      ],
      "line1": "Address 1",
      "city": "City 2",
      "postalCode": "20000",
      "primary": false,
      "state": "state"
    },
    "startedAt": "2016-11-01T02:08:01",
    "completedAt": "2016-11-01T05:53:23"
  },
  {
    "status": "completed",
    "missionName": "Lorem Ipsum Mission Title",
    "rating": 4,
    "startingPoint": {
      "coordinates": [
        73,
        56
      ],
      "line1": "Address 1",
      "city": "City 1",
      "postalCode": "10000",
      "primary": true,
      "state": "state"
    },
    "destinationPoint": {
      "coordinates": [
        -3,
        69
      ],
      "line1": "Address 1",
      "city": "City 2",
      "postalCode": "20000",
      "primary": false,
      "state": "state"
    },
    "startedAt": "2016-11-01T02:08:01",
    "completedAt": "2016-11-01T05:53:23"
  },
  {
    "status": "completed",
    "missionName": "Lorem Ipsum Mission Title",
    "rating": 4,
    "startingPoint": {
      "coordinates": [
        73,
        56
      ],
      "line1": "Address 1",
      "city": "City 1",
      "postalCode": "10000",
      "primary": true,
      "state": "state"
    },
    "destinationPoint": {
      "coordinates": [
        -3,
        69
      ],
      "line1": "Address 1",
      "city": "City 2",
      "postalCode": "20000",
      "primary": false,
      "state": "state"
    },
    "startedAt": "2016-11-01T02:08:01",
    "completedAt": "2016-11-01T05:53:23"
  },
  {
    "status": "completed",
    "missionName": "Lorem Ipsum Mission Title",
    "rating": 4,
    "startingPoint": {
      "coordinates": [
        73,
        56
      ],
      "line1": "Address 1",
      "city": "City 1",
      "postalCode": "10000",
      "primary": true,
      "state": "state"
    },
    "destinationPoint": {
      "coordinates": [
        -3,
        69
      ],
      "line1": "Address 1",
      "city": "City 2",
      "postalCode": "20000",
      "primary": false,
      "state": "state"
    },
    "startedAt": "2016-11-01T02:08:01",
    "completedAt": "2016-11-01T05:53:23"
  },
  {
    "status": "completed",
    "missionName": "Lorem Ipsum Mission Title",
    "rating": 4,
    "startingPoint": {
      "coordinates": [
        73,
        56
      ],
      "line1": "Address 1",
      "city": "City 1",
      "postalCode": "10000",
      "primary": true,
      "state": "state"
    },
    "destinationPoint": {
      "coordinates": [
        -3,
        69
      ],
      "line1": "Address 1",
      "city": "City 2",
      "postalCode": "20000",
      "primary": false,
      "state": "state"
    },
    "startedAt": "2016-11-01T02:08:01",
    "completedAt": "2016-11-01T05:53:23"
  },
  {
    "status": "completed",
    "missionName": "Lorem Ipsum Mission Title",
    "rating": 4,
    "startingPoint": {
      "coordinates": [
        73,
        56
      ],
      "line1": "Address 1",
      "city": "City 1",
      "postalCode": "10000",
      "primary": true,
      "state": "state"
    },
    "destinationPoint": {
      "coordinates": [
        -3,
        69
      ],
      "line1": "Address 1",
      "city": "City 2",
      "postalCode": "20000",
      "primary": false,
      "state": "state"
    },
    "startedAt": "2016-11-01T02:08:01",
    "completedAt": "2016-11-01T05:53:23"
  },
  {
    "status": "completed",
    "missionName": "Lorem Ipsum Mission Title",
    "rating": 4,
    "startingPoint": {
      "coordinates": [
        73,
        56
      ],
      "line1": "Address 1",
      "city": "City 1",
      "postalCode": "10000",
      "primary": true,
      "state": "state"
    },
    "destinationPoint": {
      "coordinates": [
        -3,
        69
      ],
      "line1": "Address 1",
      "city": "City 2",
      "postalCode": "20000",
      "primary": false,
      "state": "state"
    },
    "startedAt": "2016-11-01T02:08:01",
    "completedAt": "2016-11-01T05:53:23"
  },
  {
    "status": "completed",
    "missionName": "Lorem Ipsum Mission Title",
    "rating": 4,
    "startingPoint": {
      "coordinates": [
        73,
        56
      ],
      "line1": "Address 1",
      "city": "City 1",
      "postalCode": "10000",
      "primary": true,
      "state": "state"
    },
    "destinationPoint": {
      "coordinates": [
        -3,
        69
      ],
      "line1": "Address 1",
      "city": "City 2",
      "postalCode": "20000",
      "primary": false,
      "state": "state"
    },
    "startedAt": "2016-11-01T02:08:01",
    "completedAt": "2016-11-01T05:53:23"
  },
  {
    "status": "completed",
    "missionName": "Lorem Ipsum Mission Title",
    "rating": 4,
    "startingPoint": {
      "coordinates": [
        73,
        56
      ],
      "line1": "Address 1",
      "city": "City 1",
      "postalCode": "10000",
      "primary": true,
      "state": "state"
    },
    "destinationPoint": {
      "coordinates": [
        -3,
        69
      ],
      "line1": "Address 1",
      "city": "City 2",
      "postalCode": "20000",
      "primary": false,
      "state": "state"
    },
    "startedAt": "2016-11-01T02:08:01",
    "completedAt": "2016-11-01T05:53:23"
  },
  {
    "status": "completed",
    "missionName": "Lorem Ipsum Mission Title",
    "rating": 4,
    "startingPoint": {
      "coordinates": [
        73,
        56
      ],
      "line1": "Address 1",
      "city": "City 1",
      "postalCode": "10000",
      "primary": true,
      "state": "state"
    },
    "destinationPoint": {
      "coordinates": [
        -3,
        69
      ],
      "line1": "Address 1",
      "city": "City 2",
      "postalCode": "20000",
      "primary": false,
      "state": "state"
    },
    "startedAt": "2016-11-01T02:08:01",
    "completedAt": "2016-11-01T05:53:23"
  },
  {
    "status": "completed",
    "missionName": "Lorem Ipsum Mission Title",
    "rating": 4,
    "startingPoint": {
      "coordinates": [
        73,
        56
      ],
      "line1": "Address 1",
      "city": "City 1",
      "postalCode": "10000",
      "primary": true,
      "state": "state"
    },
    "destinationPoint": {
      "coordinates": [
        -3,
        69
      ],
      "line1": "Address 1",
      "city": "City 2",
      "postalCode": "20000",
      "primary": false,
      "state": "state"
    },
    "startedAt": "2016-11-01T02:08:01",
    "completedAt": "2016-11-01T05:53:23"
  },
  {
    "status": "completed",
    "missionName": "Lorem Ipsum Mission Title",
    "rating": 4,
    "startingPoint": {
      "coordinates": [
        73,
        56
      ],
      "line1": "Address 1",
      "city": "City 1",
      "postalCode": "10000",
      "primary": true,
      "state": "state"
    },
    "destinationPoint": {
      "coordinates": [
        -3,
        69
      ],
      "line1": "Address 1",
      "city": "City 2",
      "postalCode": "20000",
      "primary": false,
      "state": "state"
    },
    "startedAt": "2016-11-01T02:08:01",
    "completedAt": "2016-11-01T05:53:23"
  },
  {
    "status": "completed",
    "missionName": "Lorem Ipsum Mission Title",
    "rating": 4,
    "startingPoint": {
      "coordinates": [
        73,
        56
      ],
      "line1": "Address 1",
      "city": "City 1",
      "postalCode": "10000",
      "primary": true,
      "state": "state"
    },
    "destinationPoint": {
      "coordinates": [
        -3,
        69
      ],
      "line1": "Address 1",
      "city": "City 2",
      "postalCode": "20000",
      "primary": false,
      "state": "state"
    },
    "startedAt": "2016-11-01T02:08:01",
    "completedAt": "2016-11-01T05:53:23"
  },
  {
    "status": "completed",
    "missionName": "Lorem Ipsum Mission Title",
    "rating": 4,
    "startingPoint": {
      "coordinates": [
        73,
        56
      ],
      "line1": "Address 1",
      "city": "City 1",
      "postalCode": "10000",
      "primary": true,
      "state": "state"
    },
    "destinationPoint": {
      "coordinates": [
        -3,
        69
      ],
      "line1": "Address 1",
      "city": "City 2",
      "postalCode": "20000",
      "primary": false,
      "state": "state"
    },
    "startedAt": "2016-11-01T02:08:01",
    "completedAt": "2016-11-01T05:53:23"
  },
  {
    "status": "completed",
    "missionName": "Lorem Ipsum Mission Title",
    "rating": 4,
    "startingPoint": {
      "coordinates": [
        73,
        56
      ],
      "line1": "Address 1",
      "city": "City 1",
      "postalCode": "10000",
      "primary": true,
      "state": "state"
    },
    "destinationPoint": {
      "coordinates": [
        -3,
        69
      ],
      "line1": "Address 1",
      "city": "City 2",
      "postalCode": "20000",
      "primary": false,
      "state": "state"
    },
    "startedAt": "2016-11-01T02:08:01",
    "completedAt": "2016-11-01T05:53:23"
  },
  {
    "status": "completed",
    "missionName": "Lorem Ipsum Mission Title",
    "rating": 4,
    "startingPoint": {
      "coordinates": [
        73,
        56
      ],
      "line1": "Address 1",
      "city": "City 1",
      "postalCode": "10000",
      "primary": true,
      "state": "state"
    },
    "destinationPoint": {
      "coordinates": [
        -3,
        69
      ],
      "line1": "Address 1",
      "city": "City 2",
      "postalCode": "20000",
      "primary": false,
      "state": "state"
    },
    "startedAt": "2016-11-01T02:08:01",
    "completedAt": "2016-11-01T05:53:23"
  },
  {
    "status": "completed",
    "missionName": "Lorem Ipsum Mission Title",
    "rating": 4,
    "startingPoint": {
      "coordinates": [
        73,
        56
      ],
      "line1": "Address 1",
      "city": "City 1",
      "postalCode": "10000",
      "primary": true,
      "state": "state"
    },
    "destinationPoint": {
      "coordinates": [
        -3,
        69
      ],
      "line1": "Address 1",
      "city": "City 2",
      "postalCode": "20000",
      "primary": false,
      "state": "state"
    },
    "startedAt": "2016-11-01T02:08:01",
    "completedAt": "2016-11-01T05:53:23"
  },
  {
    "status": "completed",
    "missionName": "Lorem Ipsum Mission Title",
    "rating": 4,
    "startingPoint": {
      "coordinates": [
        73,
        56
      ],
      "line1": "Address 1",
      "city": "City 1",
      "postalCode": "10000",
      "primary": true,
      "state": "state"
    },
    "destinationPoint": {
      "coordinates": [
        -3,
        69
      ],
      "line1": "Address 1",
      "city": "City 2",
      "postalCode": "20000",
      "primary": false,
      "state": "state"
    },
    "startedAt": "2016-11-01T02:08:01",
    "completedAt": "2016-11-01T05:53:23"
  },
  {
    "status": "completed",
    "missionName": "Lorem Ipsum Mission Title",
    "rating": 4,
    "startingPoint": {
      "coordinates": [
        73,
        56
      ],
      "line1": "Address 1",
      "city": "City 1",
      "postalCode": "10000",
      "primary": true,
      "state": "state"
    },
    "destinationPoint": {
      "coordinates": [
        -3,
        69
      ],
      "line1": "Address 1",
      "city": "City 2",
      "postalCode": "20000",
      "primary": false,
      "state": "state"
    },
    "startedAt": "2016-11-01T02:08:01",
    "completedAt": "2016-11-01T05:53:23"
  },
  {
    "status": "completed",
    "missionName": "Lorem Ipsum Mission Title",
    "rating": 4,
    "startingPoint": {
      "coordinates": [
        73,
        56
      ],
      "line1": "Address 1",
      "city": "City 1",
      "postalCode": "10000",
      "primary": true,
      "state": "state"
    },
    "destinationPoint": {
      "coordinates": [
        -3,
        69
      ],
      "line1": "Address 1",
      "city": "City 2",
      "postalCode": "20000",
      "primary": false,
      "state": "state"
    },
    "startedAt": "2016-11-01T02:08:01",
    "completedAt": "2016-11-01T05:53:23"
  },
  {
    "status": "completed",
    "missionName": "Lorem Ipsum Mission Title",
    "rating": 4,
    "startingPoint": {
      "coordinates": [
        73,
        56
      ],
      "line1": "Address 1",
      "city": "City 1",
      "postalCode": "10000",
      "primary": true,
      "state": "state"
    },
    "destinationPoint": {
      "coordinates": [
        -3,
        69
      ],
      "line1": "Address 1",
      "city": "City 2",
      "postalCode": "20000",
      "primary": false,
      "state": "state"
    },
    "startedAt": "2016-11-01T02:08:01",
    "completedAt": "2016-11-01T05:53:23"
  },
  {
    "status": "completed",
    "missionName": "Lorem Ipsum Mission Title",
    "rating": 4,
    "startingPoint": {
      "coordinates": [
        73,
        56
      ],
      "line1": "Address 1",
      "city": "City 1",
      "postalCode": "10000",
      "primary": true,
      "state": "state"
    },
    "destinationPoint": {
      "coordinates": [
        -3,
        69
      ],
      "line1": "Address 1",
      "city": "City 2",
      "postalCode": "20000",
      "primary": false,
      "state": "state"
    },
    "startedAt": "2016-11-01T02:08:01",
    "completedAt": "2016-11-01T05:53:23"
  },
  {
    "status": "completed",
    "missionName": "Lorem Ipsum Mission Title",
    "rating": 4,
    "startingPoint": {
      "coordinates": [
        73,
        56
      ],
      "line1": "Address 1",
      "city": "City 1",
      "postalCode": "10000",
      "primary": true,
      "state": "state"
    },
    "destinationPoint": {
      "coordinates": [
        -3,
        69
      ],
      "line1": "Address 1",
      "city": "City 2",
      "postalCode": "20000",
      "primary": false,
      "state": "state"
    },
    "startedAt": "2016-11-01T02:08:01",
    "completedAt": "2016-11-01T05:53:23"
  },
  {
    "status": "completed",
    "missionName": "Lorem Ipsum Mission Title",
    "rating": 4,
    "startingPoint": {
      "coordinates": [
        73,
        56
      ],
      "line1": "Address 1",
      "city": "City 1",
      "postalCode": "10000",
      "primary": true,
      "state": "state"
    },
    "destinationPoint": {
      "coordinates": [
        -3,
        69
      ],
      "line1": "Address 1",
      "city": "City 2",
      "postalCode": "20000",
      "primary": false,
      "state": "state"
    },
    "startedAt": "2016-11-01T02:08:01",
    "completedAt": "2016-11-01T05:53:23"
  },
  {
    "status": "completed",
    "missionName": "Lorem Ipsum Mission Title",
    "rating": 4,
    "startingPoint": {
      "coordinates": [
        73,
        56
      ],
      "line1": "Address 1",
      "city": "City 1",
      "postalCode": "10000",
      "primary": true,
      "state": "state"
    },
    "destinationPoint": {
      "coordinates": [
        -3,
        69
      ],
      "line1": "Address 1",
      "city": "City 2",
      "postalCode": "20000",
      "primary": false,
      "state": "state"
    },
    "startedAt": "2016-11-01T02:08:01",
    "completedAt": "2016-11-01T05:53:23"
  },
  {
    "status": "completed",
    "missionName": "Lorem Ipsum Mission Title",
    "rating": 4,
    "startingPoint": {
      "coordinates": [
        73,
        56
      ],
      "line1": "Address 1",
      "city": "City 1",
      "postalCode": "10000",
      "primary": true,
      "state": "state"
    },
    "destinationPoint": {
      "coordinates": [
        -3,
        69
      ],
      "line1": "Address 1",
      "city": "City 2",
      "postalCode": "20000",
      "primary": false,
      "state": "state"
    },
    "startedAt": "2016-11-01T02:08:01",
    "completedAt": "2016-11-01T05:53:23"
  },
  {
    "status": "completed",
    "missionName": "Lorem Ipsum Mission Title",
    "rating": 4,
    "startingPoint": {
      "coordinates": [
        73,
        56
      ],
      "line1": "Address 1",
      "city": "City 1",
      "postalCode": "10000",
      "primary": true,
      "state": "state"
    },
    "destinationPoint": {
      "coordinates": [
        -3,
        69
      ],
      "line1": "Address 1",
      "city": "City 2",
      "postalCode": "20000",
      "primary": false,
      "state": "state"
    },
    "startedAt": "2016-11-01T02:08:01",
    "completedAt": "2016-11-01T05:53:23"
  },{
    "status": "waiting",
    "missionName": "Lorem Ipsum Mission Title",
    "rating": 4,
    "startingPoint": {
      "coordinates": [
        73,
        56
      ],
      "line1": "Address 1",
      "city": "City 1",
      "postalCode": "10000",
      "primary": true,
      "state": "state"
    },
    "destinationPoint": {
      "coordinates": [
        -3,
        69
      ],
      "line1": "Address 1",
      "city": "City 2",
      "postalCode": "20000",
      "primary": false,
      "state": "state"
    }
  },
  {
    "status": "waiting",
    "missionName": "Lorem Ipsum Mission Title",
    "rating": 4,
    "startingPoint": {
      "coordinates": [
        73,
        56
      ],
      "line1": "Address 1",
      "city": "City 1",
      "postalCode": "10000",
      "primary": true,
      "state": "state"
    },
    "destinationPoint": {
      "coordinates": [
        -3,
        69
      ],
      "line1": "Address 1",
      "city": "City 2",
      "postalCode": "20000",
      "primary": false,
      "state": "state"
    }
  },
  {
    "status": "waiting",
    "missionName": "Lorem Ipsum Mission Title",
    "rating": 4,
    "startingPoint": {
      "coordinates": [
        73,
        56
      ],
      "line1": "Address 1",
      "city": "City 1",
      "postalCode": "10000",
      "primary": true,
      "state": "state"
    },
    "destinationPoint": {
      "coordinates": [
        -3,
        69
      ],
      "line1": "Address 1",
      "city": "City 2",
      "postalCode": "20000",
      "primary": false,
      "state": "state"
    }
  },
  {
    "status": "waiting",
    "missionName": "Lorem Ipsum Mission Title",
    "rating": 4,
    "startingPoint": {
      "coordinates": [
        73,
        56
      ],
      "line1": "Address 1",
      "city": "City 1",
      "postalCode": "10000",
      "primary": true,
      "state": "state"
    },
    "destinationPoint": {
      "coordinates": [
        -3,
        69
      ],
      "line1": "Address 1",
      "city": "City 2",
      "postalCode": "20000",
      "primary": false,
      "state": "state"
    }
  },
  {
    "status": "waiting",
    "missionName": "Lorem Ipsum Mission Title",
    "rating": 4,
    "startingPoint": {
      "coordinates": [
        73,
        56
      ],
      "line1": "Address 1",
      "city": "City 1",
      "postalCode": "10000",
      "primary": true,
      "state": "state"
    },
    "destinationPoint": {
      "coordinates": [
        -3,
        69
      ],
      "line1": "Address 1",
      "city": "City 2",
      "postalCode": "20000",
      "primary": false,
      "state": "state"
    }
  },
  {
    "status": "waiting",
    "missionName": "Lorem Ipsum Mission Title",
    "rating": 4,
    "startingPoint": {
      "coordinates": [
        73,
        56
      ],
      "line1": "Address 1",
      "city": "City 1",
      "postalCode": "10000",
      "primary": true,
      "state": "state"
    },
    "destinationPoint": {
      "coordinates": [
        -3,
        69
      ],
      "line1": "Address 1",
      "city": "City 2",
      "postalCode": "20000",
      "primary": false,
      "state": "state"
    }
  },
  {
    "status": "waiting",
    "missionName": "Lorem Ipsum Mission Title",
    "rating": 4,
    "startingPoint": {
      "coordinates": [
        73,
        56
      ],
      "line1": "Address 1",
      "city": "City 1",
      "postalCode": "10000",
      "primary": true,
      "state": "state"
    },
    "destinationPoint": {
      "coordinates": [
        -3,
        69
      ],
      "line1": "Address 1",
      "city": "City 2",
      "postalCode": "20000",
      "primary": false,
      "state": "state"
    }
  },
  {
    "status": "waiting",
    "missionName": "Lorem Ipsum Mission Title",
    "rating": 4,
    "startingPoint": {
      "coordinates": [
        73,
        56
      ],
      "line1": "Address 1",
      "city": "City 1",
      "postalCode": "10000",
      "primary": true,
      "state": "state"
    },
    "destinationPoint": {
      "coordinates": [
        -3,
        69
      ],
      "line1": "Address 1",
      "city": "City 2",
      "postalCode": "20000",
      "primary": false,
      "state": "state"
    }
  },
  {
    "status": "waiting",
    "missionName": "Lorem Ipsum Mission Title",
    "rating": 4,
    "startingPoint": {
      "coordinates": [
        73,
        56
      ],
      "line1": "Address 1",
      "city": "City 1",
      "postalCode": "10000",
      "primary": true,
      "state": "state"
    },
    "destinationPoint": {
      "coordinates": [
        -3,
        69
      ],
      "line1": "Address 1",
      "city": "City 2",
      "postalCode": "20000",
      "primary": false,
      "state": "state"
    }
  },
  {
    "status": "waiting",
    "missionName": "Lorem Ipsum Mission Title",
    "rating": 4,
    "startingPoint": {
      "coordinates": [
        73,
        56
      ],
      "line1": "Address 1",
      "city": "City 1",
      "postalCode": "10000",
      "primary": true,
      "state": "state"
    },
    "destinationPoint": {
      "coordinates": [
        -3,
        69
      ],
      "line1": "Address 1",
      "city": "City 2",
      "postalCode": "20000",
      "primary": false,
      "state": "state"
    }
  },
  {
    "status": "waiting",
    "missionName": "Lorem Ipsum Mission Title",
    "rating": 4,
    "startingPoint": {
      "coordinates": [
        73,
        56
      ],
      "line1": "Address 1",
      "city": "City 1",
      "postalCode": "10000",
      "primary": true,
      "state": "state"
    },
    "destinationPoint": {
      "coordinates": [
        -3,
        69
      ],
      "line1": "Address 1",
      "city": "City 2",
      "postalCode": "20000",
      "primary": false,
      "state": "state"
    }
  },
  {
    "status": "waiting",
    "missionName": "Lorem Ipsum Mission Title",
    "rating": 4,
    "startingPoint": {
      "coordinates": [
        73,
        56
      ],
      "line1": "Address 1",
      "city": "City 1",
      "postalCode": "10000",
      "primary": true,
      "state": "state"
    },
    "destinationPoint": {
      "coordinates": [
        -3,
        69
      ],
      "line1": "Address 1",
      "city": "City 2",
      "postalCode": "20000",
      "primary": false,
      "state": "state"
    }
  },
  {
    "status": "waiting",
    "missionName": "Lorem Ipsum Mission Title",
    "rating": 4,
    "startingPoint": {
      "coordinates": [
        73,
        56
      ],
      "line1": "Address 1",
      "city": "City 1",
      "postalCode": "10000",
      "primary": true,
      "state": "state"
    },
    "destinationPoint": {
      "coordinates": [
        -3,
        69
      ],
      "line1": "Address 1",
      "city": "City 2",
      "postalCode": "20000",
      "primary": false,
      "state": "state"
    }
  },
  {
    "status": "waiting",
    "missionName": "Lorem Ipsum Mission Title",
    "rating": 4,
    "startingPoint": {
      "coordinates": [
        73,
        56
      ],
      "line1": "Address 1",
      "city": "City 1",
      "postalCode": "10000",
      "primary": true,
      "state": "state"
    },
    "destinationPoint": {
      "coordinates": [
        -3,
        69
      ],
      "line1": "Address 1",
      "city": "City 2",
      "postalCode": "20000",
      "primary": false,
      "state": "state"
    }
  },
  {
    "status": "waiting",
    "missionName": "Lorem Ipsum Mission Title",
    "rating": 4,
    "startingPoint": {
      "coordinates": [
        73,
        56
      ],
      "line1": "Address 1",
      "city": "City 1",
      "postalCode": "10000",
      "primary": true,
      "state": "state"
    },
    "destinationPoint": {
      "coordinates": [
        -3,
        69
      ],
      "line1": "Address 1",
      "city": "City 2",
      "postalCode": "20000",
      "primary": false,
      "state": "state"
    }
  },
  {
    "status": "waiting",
    "missionName": "Lorem Ipsum Mission Title",
    "rating": 4,
    "startingPoint": {
      "coordinates": [
        73,
        56
      ],
      "line1": "Address 1",
      "city": "City 1",
      "postalCode": "10000",
      "primary": true,
      "state": "state"
    },
    "destinationPoint": {
      "coordinates": [
        -3,
        69
      ],
      "line1": "Address 1",
      "city": "City 2",
      "postalCode": "20000",
      "primary": false,
      "state": "state"
    }
  },
  {
    "status": "waiting",
    "missionName": "Lorem Ipsum Mission Title",
    "rating": 4,
    "startingPoint": {
      "coordinates": [
        73,
        56
      ],
      "line1": "Address 1",
      "city": "City 1",
      "postalCode": "10000",
      "primary": true,
      "state": "state"
    },
    "destinationPoint": {
      "coordinates": [
        -3,
        69
      ],
      "line1": "Address 1",
      "city": "City 2",
      "postalCode": "20000",
      "primary": false,
      "state": "state"
    }
  },
  {
    "status": "waiting",
    "missionName": "Lorem Ipsum Mission Title",
    "rating": 4,
    "startingPoint": {
      "coordinates": [
        73,
        56
      ],
      "line1": "Address 1",
      "city": "City 1",
      "postalCode": "10000",
      "primary": true,
      "state": "state"
    },
    "destinationPoint": {
      "coordinates": [
        -3,
        69
      ],
      "line1": "Address 1",
      "city": "City 2",
      "postalCode": "20000",
      "primary": false,
      "state": "state"
    }
  },
  {
    "status": "waiting",
    "missionName": "Lorem Ipsum Mission Title",
    "rating": 4,
    "startingPoint": {
      "coordinates": [
        73,
        56
      ],
      "line1": "Address 1",
      "city": "City 1",
      "postalCode": "10000",
      "primary": true,
      "state": "state"
    },
    "destinationPoint": {
      "coordinates": [
        -3,
        69
      ],
      "line1": "Address 1",
      "city": "City 2",
      "postalCode": "20000",
      "primary": false,
      "state": "state"
    }
  },
  {
    "status": "waiting",
    "missionName": "Lorem Ipsum Mission Title",
    "rating": 4,
    "startingPoint": {
      "coordinates": [
        73,
        56
      ],
      "line1": "Address 1",
      "city": "City 1",
      "postalCode": "10000",
      "primary": true,
      "state": "state"
    },
    "destinationPoint": {
      "coordinates": [
        -3,
        69
      ],
      "line1": "Address 1",
      "city": "City 2",
      "postalCode": "20000",
      "primary": false,
      "state": "state"
    }
  },
  {
    "status": "waiting",
    "missionName": "Lorem Ipsum Mission Title",
    "rating": 4,
    "startingPoint": {
      "coordinates": [
        73,
        56
      ],
      "line1": "Address 1",
      "city": "City 1",
      "postalCode": "10000",
      "primary": true,
      "state": "state"
    },
    "destinationPoint": {
      "coordinates": [
        -3,
        69
      ],
      "line1": "Address 1",
      "city": "City 2",
      "postalCode": "20000",
      "primary": false,
      "state": "state"
    }
  },
  {
    "status": "waiting",
    "missionName": "Lorem Ipsum Mission Title",
    "rating": 4,
    "startingPoint": {
      "coordinates": [
        73,
        56
      ],
      "line1": "Address 1",
      "city": "City 1",
      "postalCode": "10000",
      "primary": true,
      "state": "state"
    },
    "destinationPoint": {
      "coordinates": [
        -3,
        69
      ],
      "line1": "Address 1",
      "city": "City 2",
      "postalCode": "20000",
      "primary": false,
      "state": "state"
    }
  },
  {
    "status": "waiting",
    "missionName": "Lorem Ipsum Mission Title",
    "rating": 4,
    "startingPoint": {
      "coordinates": [
        73,
        56
      ],
      "line1": "Address 1",
      "city": "City 1",
      "postalCode": "10000",
      "primary": true,
      "state": "state"
    },
    "destinationPoint": {
      "coordinates": [
        -3,
        69
      ],
      "line1": "Address 1",
      "city": "City 2",
      "postalCode": "20000",
      "primary": false,
      "state": "state"
    }
  },
  {
    "status": "waiting",
    "missionName": "Lorem Ipsum Mission Title",
    "rating": 4,
    "startingPoint": {
      "coordinates": [
        73,
        56
      ],
      "line1": "Address 1",
      "city": "City 1",
      "postalCode": "10000",
      "primary": true,
      "state": "state"
    },
    "destinationPoint": {
      "coordinates": [
        -3,
        69
      ],
      "line1": "Address 1",
      "city": "City 2",
      "postalCode": "20000",
      "primary": false,
      "state": "state"
    }
  },
  {
    "status": "waiting",
    "missionName": "Lorem Ipsum Mission Title",
    "rating": 4,
    "startingPoint": {
      "coordinates": [
        73,
        56
      ],
      "line1": "Address 1",
      "city": "City 1",
      "postalCode": "10000",
      "primary": true,
      "state": "state"
    },
    "destinationPoint": {
      "coordinates": [
        -3,
        69
      ],
      "line1": "Address 1",
      "city": "City 2",
      "postalCode": "20000",
      "primary": false,
      "state": "state"
    }
  },
  {
    "status": "waiting",
    "missionName": "Lorem Ipsum Mission Title",
    "rating": 4,
    "startingPoint": {
      "coordinates": [
        73,
        56
      ],
      "line1": "Address 1",
      "city": "City 1",
      "postalCode": "10000",
      "primary": true,
      "state": "state"
    },
    "destinationPoint": {
      "coordinates": [
        -3,
        69
      ],
      "line1": "Address 1",
      "city": "City 2",
      "postalCode": "20000",
      "primary": false,
      "state": "state"
    }
  },
  {
    "status": "waiting",
    "missionName": "Lorem Ipsum Mission Title",
    "rating": 4,
    "startingPoint": {
      "coordinates": [
        73,
        56
      ],
      "line1": "Address 1",
      "city": "City 1",
      "postalCode": "10000",
      "primary": true,
      "state": "state"
    },
    "destinationPoint": {
      "coordinates": [
        -3,
        69
      ],
      "line1": "Address 1",
      "city": "City 2",
      "postalCode": "20000",
      "primary": false,
      "state": "state"
    }
  },
  {
    "status": "waiting",
    "missionName": "Lorem Ipsum Mission Title",
    "rating": 4,
    "startingPoint": {
      "coordinates": [
        73,
        56
      ],
      "line1": "Address 1",
      "city": "City 1",
      "postalCode": "10000",
      "primary": true,
      "state": "state"
    },
    "destinationPoint": {
      "coordinates": [
        -3,
        69
      ],
      "line1": "Address 1",
      "city": "City 2",
      "postalCode": "20000",
      "primary": false,
      "state": "state"
    }
  },
  {
    "status": "waiting",
    "missionName": "Lorem Ipsum Mission Title",
    "rating": 4,
    "startingPoint": {
      "coordinates": [
        73,
        56
      ],
      "line1": "Address 1",
      "city": "City 1",
      "postalCode": "10000",
      "primary": true,
      "state": "state"
    },
    "destinationPoint": {
      "coordinates": [
        -3,
        69
      ],
      "line1": "Address 1",
      "city": "City 2",
      "postalCode": "20000",
      "primary": false,
      "state": "state"
    }
  },
  {
    "status": "waiting",
    "missionName": "Lorem Ipsum Mission Title",
    "rating": 4,
    "startingPoint": {
      "coordinates": [
        73,
        56
      ],
      "line1": "Address 1",
      "city": "City 1",
      "postalCode": "10000",
      "primary": true,
      "state": "state"
    },
    "destinationPoint": {
      "coordinates": [
        -3,
        69
      ],
      "line1": "Address 1",
      "city": "City 2",
      "postalCode": "20000",
      "primary": false,
      "state": "state"
    }
  },
  {
    "status": "waiting",
    "missionName": "Lorem Ipsum Mission Title",
    "rating": 4,
    "startingPoint": {
      "coordinates": [
        73,
        56
      ],
      "line1": "Address 1",
      "city": "City 1",
      "postalCode": "10000",
      "primary": true,
      "state": "state"
    },
    "destinationPoint": {
      "coordinates": [
        -3,
        69
      ],
      "line1": "Address 1",
      "city": "City 2",
      "postalCode": "20000",
      "primary": false,
      "state": "state"
    }
  },
  {
    "status": "waiting",
    "missionName": "Lorem Ipsum Mission Title",
    "rating": 4,
    "startingPoint": {
      "coordinates": [
        73,
        56
      ],
      "line1": "Address 1",
      "city": "City 1",
      "postalCode": "10000",
      "primary": true,
      "state": "state"
    },
    "destinationPoint": {
      "coordinates": [
        -3,
        69
      ],
      "line1": "Address 1",
      "city": "City 2",
      "postalCode": "20000",
      "primary": false,
      "state": "state"
    }
  },
  {
    "status": "waiting",
    "missionName": "Lorem Ipsum Mission Title",
    "rating": 4,
    "startingPoint": {
      "coordinates": [
        73,
        56
      ],
      "line1": "Address 1",
      "city": "City 1",
      "postalCode": "10000",
      "primary": true,
      "state": "state"
    },
    "destinationPoint": {
      "coordinates": [
        -3,
        69
      ],
      "line1": "Address 1",
      "city": "City 2",
      "postalCode": "20000",
      "primary": false,
      "state": "state"
    }
  },
  {
    "status": "waiting",
    "missionName": "Lorem Ipsum Mission Title",
    "rating": 4,
    "startingPoint": {
      "coordinates": [
        73,
        56
      ],
      "line1": "Address 1",
      "city": "City 1",
      "postalCode": "10000",
      "primary": true,
      "state": "state"
    },
    "destinationPoint": {
      "coordinates": [
        -3,
        69
      ],
      "line1": "Address 1",
      "city": "City 2",
      "postalCode": "20000",
      "primary": false,
      "state": "state"
    }
  },
  {
    "status": "waiting",
    "missionName": "Lorem Ipsum Mission Title",
    "rating": 4,
    "startingPoint": {
      "coordinates": [
        73,
        56
      ],
      "line1": "Address 1",
      "city": "City 1",
      "postalCode": "10000",
      "primary": true,
      "state": "state"
    },
    "destinationPoint": {
      "coordinates": [
        -3,
        69
      ],
      "line1": "Address 1",
      "city": "City 2",
      "postalCode": "20000",
      "primary": false,
      "state": "state"
    }
  },
  {
    "status": "waiting",
    "missionName": "Lorem Ipsum Mission Title",
    "rating": 4,
    "startingPoint": {
      "coordinates": [
        73,
        56
      ],
      "line1": "Address 1",
      "city": "City 1",
      "postalCode": "10000",
      "primary": true,
      "state": "state"
    },
    "destinationPoint": {
      "coordinates": [
        -3,
        69
      ],
      "line1": "Address 1",
      "city": "City 2",
      "postalCode": "20000",
      "primary": false,
      "state": "state"
    }
  },
  {
    "status": "completed",
    "missionName": "Lorem Ipsum Mission Title",
    "rating": 4,
    "startingPoint": {
      "coordinates": [
        73,
        56
      ],
      "line1": "Address 1",
      "city": "City 1",
      "postalCode": "10000",
      "primary": true,
      "state": "state"
    },
    "destinationPoint": {
      "coordinates": [
        -3,
        69
      ],
      "line1": "Address 1",
      "city": "City 2",
      "postalCode": "20000",
      "primary": false,
      "state": "state"
    },
    "startedAt": "2016-11-01T02:08:01",
    "completedAt": "2016-11-01T05:53:23"
  },
  {
    "status": "completed",
    "missionName": "Lorem Ipsum Mission Title",
    "rating": 4,
    "startingPoint": {
      "coordinates": [
        73,
        56
      ],
      "line1": "Address 1",
      "city": "City 1",
      "postalCode": "10000",
      "primary": true,
      "state": "state"
    },
    "destinationPoint": {
      "coordinates": [
        -3,
        69
      ],
      "line1": "Address 1",
      "city": "City 2",
      "postalCode": "20000",
      "primary": false,
      "state": "state"
    },
    "startedAt": "2016-11-01T02:08:01",
    "completedAt": "2016-11-01T05:53:23"
  },
  {
    "status": "completed",
    "missionName": "Lorem Ipsum Mission Title",
    "rating": 4,
    "startingPoint": {
      "coordinates": [
        73,
        56
      ],
      "line1": "Address 1",
      "city": "City 1",
      "postalCode": "10000",
      "primary": true,
      "state": "state"
    },
    "destinationPoint": {
      "coordinates": [
        -3,
        69
      ],
      "line1": "Address 1",
      "city": "City 2",
      "postalCode": "20000",
      "primary": false,
      "state": "state"
    },
    "startedAt": "2016-11-01T02:08:01",
    "completedAt": "2016-11-01T05:53:23"
  },
  {
    "status": "completed",
    "missionName": "Lorem Ipsum Mission Title",
    "rating": 4,
    "startingPoint": {
      "coordinates": [
        73,
        56
      ],
      "line1": "Address 1",
      "city": "City 1",
      "postalCode": "10000",
      "primary": true,
      "state": "state"
    },
    "destinationPoint": {
      "coordinates": [
        -3,
        69
      ],
      "line1": "Address 1",
      "city": "City 2",
      "postalCode": "20000",
      "primary": false,
      "state": "state"
    },
    "startedAt": "2016-11-01T02:08:01",
    "completedAt": "2016-11-01T05:53:23"
  },
  {
    "status": "completed",
    "missionName": "Lorem Ipsum Mission Title",
    "rating": 4,
    "startingPoint": {
      "coordinates": [
        73,
        56
      ],
      "line1": "Address 1",
      "city": "City 1",
      "postalCode": "10000",
      "primary": true,
      "state": "state"
    },
    "destinationPoint": {
      "coordinates": [
        -3,
        69
      ],
      "line1": "Address 1",
      "city": "City 2",
      "postalCode": "20000",
      "primary": false,
      "state": "state"
    },
    "startedAt": "2016-11-01T02:08:01",
    "completedAt": "2016-11-01T05:53:23"
  },
  {
    "status": "completed",
    "missionName": "Lorem Ipsum Mission Title",
    "rating": 4,
    "startingPoint": {
      "coordinates": [
        73,
        56
      ],
      "line1": "Address 1",
      "city": "City 1",
      "postalCode": "10000",
      "primary": true,
      "state": "state"
    },
    "destinationPoint": {
      "coordinates": [
        -3,
        69
      ],
      "line1": "Address 1",
      "city": "City 2",
      "postalCode": "20000",
      "primary": false,
      "state": "state"
    },
    "startedAt": "2016-11-01T02:08:01",
    "completedAt": "2016-11-01T05:53:23"
  },
  {
    "status": "completed",
    "missionName": "Lorem Ipsum Mission Title",
    "rating": 4,
    "startingPoint": {
      "coordinates": [
        73,
        56
      ],
      "line1": "Address 1",
      "city": "City 1",
      "postalCode": "10000",
      "primary": true,
      "state": "state"
    },
    "destinationPoint": {
      "coordinates": [
        -3,
        69
      ],
      "line1": "Address 1",
      "city": "City 2",
      "postalCode": "20000",
      "primary": false,
      "state": "state"
    },
    "startedAt": "2016-11-01T02:08:01",
    "completedAt": "2016-11-01T05:53:23"
  },
  {
    "status": "completed",
    "missionName": "Lorem Ipsum Mission Title",
    "rating": 4,
    "startingPoint": {
      "coordinates": [
        73,
        56
      ],
      "line1": "Address 1",
      "city": "City 1",
      "postalCode": "10000",
      "primary": true,
      "state": "state"
    },
    "destinationPoint": {
      "coordinates": [
        -3,
        69
      ],
      "line1": "Address 1",
      "city": "City 2",
      "postalCode": "20000",
      "primary": false,
      "state": "state"
    },
    "startedAt": "2016-11-01T02:08:01",
    "completedAt": "2016-11-01T05:53:23"
  },
  {
    "status": "completed",
    "missionName": "Lorem Ipsum Mission Title",
    "rating": 4,
    "startingPoint": {
      "coordinates": [
        73,
        56
      ],
      "line1": "Address 1",
      "city": "City 1",
      "postalCode": "10000",
      "primary": true,
      "state": "state"
    },
    "destinationPoint": {
      "coordinates": [
        -3,
        69
      ],
      "line1": "Address 1",
      "city": "City 2",
      "postalCode": "20000",
      "primary": false,
      "state": "state"
    },
    "startedAt": "2016-11-01T02:08:01",
    "completedAt": "2016-11-01T05:53:23"
  },
  {
    "status": "completed",
    "missionName": "Lorem Ipsum Mission Title",
    "rating": 4,
    "startingPoint": {
      "coordinates": [
        73,
        56
      ],
      "line1": "Address 1",
      "city": "City 1",
      "postalCode": "10000",
      "primary": true,
      "state": "state"
    },
    "destinationPoint": {
      "coordinates": [
        -3,
        69
      ],
      "line1": "Address 1",
      "city": "City 2",
      "postalCode": "20000",
      "primary": false,
      "state": "state"
    },
    "startedAt": "2016-11-01T02:08:01",
    "completedAt": "2016-11-01T05:53:23"
  },
  {
    "status": "completed",
    "missionName": "Lorem Ipsum Mission Title",
    "rating": 4,
    "startingPoint": {
      "coordinates": [
        73,
        56
      ],
      "line1": "Address 1",
      "city": "City 1",
      "postalCode": "10000",
      "primary": true,
      "state": "state"
    },
    "destinationPoint": {
      "coordinates": [
        -3,
        69
      ],
      "line1": "Address 1",
      "city": "City 2",
      "postalCode": "20000",
      "primary": false,
      "state": "state"
    },
    "startedAt": "2016-11-01T02:08:01",
    "completedAt": "2016-11-01T05:53:23"
  },
  {
    "status": "completed",
    "missionName": "Lorem Ipsum Mission Title",
    "rating": 4,
    "startingPoint": {
      "coordinates": [
        73,
        56
      ],
      "line1": "Address 1",
      "city": "City 1",
      "postalCode": "10000",
      "primary": true,
      "state": "state"
    },
    "destinationPoint": {
      "coordinates": [
        -3,
        69
      ],
      "line1": "Address 1",
      "city": "City 2",
      "postalCode": "20000",
      "primary": false,
      "state": "state"
    },
    "startedAt": "2016-11-01T02:08:01",
    "completedAt": "2016-11-01T05:53:23"
  },
  {
    "status": "completed",
    "missionName": "Lorem Ipsum Mission Title",
    "rating": 4,
    "startingPoint": {
      "coordinates": [
        73,
        56
      ],
      "line1": "Address 1",
      "city": "City 1",
      "postalCode": "10000",
      "primary": true,
      "state": "state"
    },
    "destinationPoint": {
      "coordinates": [
        -3,
        69
      ],
      "line1": "Address 1",
      "city": "City 2",
      "postalCode": "20000",
      "primary": false,
      "state": "state"
    },
    "startedAt": "2016-11-01T02:08:01",
    "completedAt": "2016-11-01T05:53:23"
  },
  {
    "status": "completed",
    "missionName": "Lorem Ipsum Mission Title",
    "rating": 4,
    "startingPoint": {
      "coordinates": [
        73,
        56
      ],
      "line1": "Address 1",
      "city": "City 1",
      "postalCode": "10000",
      "primary": true,
      "state": "state"
    },
    "destinationPoint": {
      "coordinates": [
        -3,
        69
      ],
      "line1": "Address 1",
      "city": "City 2",
      "postalCode": "20000",
      "primary": false,
      "state": "state"
    },
    "startedAt": "2016-11-01T02:08:01",
    "completedAt": "2016-11-01T05:53:23"
  },
  {
    "status": "completed",
    "missionName": "Lorem Ipsum Mission Title",
    "rating": 4,
    "startingPoint": {
      "coordinates": [
        73,
        56
      ],
      "line1": "Address 1",
      "city": "City 1",
      "postalCode": "10000",
      "primary": true,
      "state": "state"
    },
    "destinationPoint": {
      "coordinates": [
        -3,
        69
      ],
      "line1": "Address 1",
      "city": "City 2",
      "postalCode": "20000",
      "primary": false,
      "state": "state"
    },
    "startedAt": "2016-11-01T02:08:01",
    "completedAt": "2016-11-01T05:53:23"
  },
  {
    "status": "completed",
    "missionName": "Lorem Ipsum Mission Title",
    "rating": 4,
    "startingPoint": {
      "coordinates": [
        73,
        56
      ],
      "line1": "Address 1",
      "city": "City 1",
      "postalCode": "10000",
      "primary": true,
      "state": "state"
    },
    "destinationPoint": {
      "coordinates": [
        -3,
        69
      ],
      "line1": "Address 1",
      "city": "City 2",
      "postalCode": "20000",
      "primary": false,
      "state": "state"
    },
    "startedAt": "2016-11-01T02:08:01",
    "completedAt": "2016-11-01T05:53:23"
  },
  {
    "status": "completed",
    "missionName": "Lorem Ipsum Mission Title",
    "rating": 4,
    "startingPoint": {
      "coordinates": [
        73,
        56
      ],
      "line1": "Address 1",
      "city": "City 1",
      "postalCode": "10000",
      "primary": true,
      "state": "state"
    },
    "destinationPoint": {
      "coordinates": [
        -3,
        69
      ],
      "line1": "Address 1",
      "city": "City 2",
      "postalCode": "20000",
      "primary": false,
      "state": "state"
    },
    "startedAt": "2016-11-01T02:08:01",
    "completedAt": "2016-11-01T05:53:23"
  },
  {
    "status": "completed",
    "missionName": "Lorem Ipsum Mission Title",
    "rating": 4,
    "startingPoint": {
      "coordinates": [
        73,
        56
      ],
      "line1": "Address 1",
      "city": "City 1",
      "postalCode": "10000",
      "primary": true,
      "state": "state"
    },
    "destinationPoint": {
      "coordinates": [
        -3,
        69
      ],
      "line1": "Address 1",
      "city": "City 2",
      "postalCode": "20000",
      "primary": false,
      "state": "state"
    },
    "startedAt": "2016-11-01T02:08:01",
    "completedAt": "2016-11-01T05:53:23"
  },
  {
    "status": "completed",
    "missionName": "Lorem Ipsum Mission Title",
    "rating": 4,
    "startingPoint": {
      "coordinates": [
        73,
        56
      ],
      "line1": "Address 1",
      "city": "City 1",
      "postalCode": "10000",
      "primary": true,
      "state": "state"
    },
    "destinationPoint": {
      "coordinates": [
        -3,
        69
      ],
      "line1": "Address 1",
      "city": "City 2",
      "postalCode": "20000",
      "primary": false,
      "state": "state"
    },
    "startedAt": "2016-11-01T02:08:01",
    "completedAt": "2016-11-01T05:53:23"
  },
  {
    "status": "completed",
    "missionName": "Lorem Ipsum Mission Title",
    "rating": 4,
    "startingPoint": {
      "coordinates": [
        73,
        56
      ],
      "line1": "Address 1",
      "city": "City 1",
      "postalCode": "10000",
      "primary": true,
      "state": "state"
    },
    "destinationPoint": {
      "coordinates": [
        -3,
        69
      ],
      "line1": "Address 1",
      "city": "City 2",
      "postalCode": "20000",
      "primary": false,
      "state": "state"
    },
    "startedAt": "2016-11-01T02:08:01",
    "completedAt": "2016-11-01T05:53:23"
  },
  {
    "status": "completed",
    "missionName": "Lorem Ipsum Mission Title",
    "rating": 4,
    "startingPoint": {
      "coordinates": [
        73,
        56
      ],
      "line1": "Address 1",
      "city": "City 1",
      "postalCode": "10000",
      "primary": true,
      "state": "state"
    },
    "destinationPoint": {
      "coordinates": [
        -3,
        69
      ],
      "line1": "Address 1",
      "city": "City 2",
      "postalCode": "20000",
      "primary": false,
      "state": "state"
    },
    "startedAt": "2016-11-01T02:08:01",
    "completedAt": "2016-11-01T05:53:23"
  },
  {
    "status": "completed",
    "missionName": "Lorem Ipsum Mission Title",
    "rating": 4,
    "startingPoint": {
      "coordinates": [
        73,
        56
      ],
      "line1": "Address 1",
      "city": "City 1",
      "postalCode": "10000",
      "primary": true,
      "state": "state"
    },
    "destinationPoint": {
      "coordinates": [
        -3,
        69
      ],
      "line1": "Address 1",
      "city": "City 2",
      "postalCode": "20000",
      "primary": false,
      "state": "state"
    },
    "startedAt": "2016-11-01T02:08:01",
    "completedAt": "2016-11-01T05:53:23"
  },
  {
    "status": "completed",
    "missionName": "Lorem Ipsum Mission Title",
    "rating": 4,
    "startingPoint": {
      "coordinates": [
        73,
        56
      ],
      "line1": "Address 1",
      "city": "City 1",
      "postalCode": "10000",
      "primary": true,
      "state": "state"
    },
    "destinationPoint": {
      "coordinates": [
        -3,
        69
      ],
      "line1": "Address 1",
      "city": "City 2",
      "postalCode": "20000",
      "primary": false,
      "state": "state"
    },
    "startedAt": "2016-11-01T02:08:01",
    "completedAt": "2016-11-01T05:53:23"
  },
  {
    "status": "completed",
    "missionName": "Lorem Ipsum Mission Title",
    "rating": 4,
    "startingPoint": {
      "coordinates": [
        73,
        56
      ],
      "line1": "Address 1",
      "city": "City 1",
      "postalCode": "10000",
      "primary": true,
      "state": "state"
    },
    "destinationPoint": {
      "coordinates": [
        -3,
        69
      ],
      "line1": "Address 1",
      "city": "City 2",
      "postalCode": "20000",
      "primary": false,
      "state": "state"
    },
    "startedAt": "2016-11-01T02:08:01",
    "completedAt": "2016-11-01T05:53:23"
  },
  {
    "status": "completed",
    "missionName": "Lorem Ipsum Mission Title",
    "rating": 4,
    "startingPoint": {
      "coordinates": [
        73,
        56
      ],
      "line1": "Address 1",
      "city": "City 1",
      "postalCode": "10000",
      "primary": true,
      "state": "state"
    },
    "destinationPoint": {
      "coordinates": [
        -3,
        69
      ],
      "line1": "Address 1",
      "city": "City 2",
      "postalCode": "20000",
      "primary": false,
      "state": "state"
    },
    "startedAt": "2016-11-01T02:08:01",
    "completedAt": "2016-11-01T05:53:23"
  },
  {
    "status": "completed",
    "missionName": "Lorem Ipsum Mission Title",
    "rating": 4,
    "startingPoint": {
      "coordinates": [
        73,
        56
      ],
      "line1": "Address 1",
      "city": "City 1",
      "postalCode": "10000",
      "primary": true,
      "state": "state"
    },
    "destinationPoint": {
      "coordinates": [
        -3,
        69
      ],
      "line1": "Address 1",
      "city": "City 2",
      "postalCode": "20000",
      "primary": false,
      "state": "state"
    },
    "startedAt": "2016-11-01T02:08:01",
    "completedAt": "2016-11-01T05:53:23"
  },
  {
    "status": "completed",
    "missionName": "Lorem Ipsum Mission Title",
    "rating": 4,
    "startingPoint": {
      "coordinates": [
        73,
        56
      ],
      "line1": "Address 1",
      "city": "City 1",
      "postalCode": "10000",
      "primary": true,
      "state": "state"
    },
    "destinationPoint": {
      "coordinates": [
        -3,
        69
      ],
      "line1": "Address 1",
      "city": "City 2",
      "postalCode": "20000",
      "primary": false,
      "state": "state"
    },
    "startedAt": "2016-11-01T02:08:01",
    "completedAt": "2016-11-01T05:53:23"
  },
  {
    "status": "completed",
    "missionName": "Lorem Ipsum Mission Title",
    "rating": 4,
    "startingPoint": {
      "coordinates": [
        73,
        56
      ],
      "line1": "Address 1",
      "city": "City 1",
      "postalCode": "10000",
      "primary": true,
      "state": "state"
    },
    "destinationPoint": {
      "coordinates": [
        -3,
        69
      ],
      "line1": "Address 1",
      "city": "City 2",
      "postalCode": "20000",
      "primary": false,
      "state": "state"
    },
    "startedAt": "2016-11-01T02:08:01",
    "completedAt": "2016-11-01T05:53:23"
  },
  {
    "status": "completed",
    "missionName": "Lorem Ipsum Mission Title",
    "rating": 4,
    "startingPoint": {
      "coordinates": [
        73,
        56
      ],
      "line1": "Address 1",
      "city": "City 1",
      "postalCode": "10000",
      "primary": true,
      "state": "state"
    },
    "destinationPoint": {
      "coordinates": [
        -3,
        69
      ],
      "line1": "Address 1",
      "city": "City 2",
      "postalCode": "20000",
      "primary": false,
      "state": "state"
    },
    "startedAt": "2016-11-01T02:08:01",
    "completedAt": "2016-11-01T05:53:23"
  },
  {
    "status": "completed",
    "missionName": "Lorem Ipsum Mission Title",
    "rating": 4,
    "startingPoint": {
      "coordinates": [
        73,
        56
      ],
      "line1": "Address 1",
      "city": "City 1",
      "postalCode": "10000",
      "primary": true,
      "state": "state"
    },
    "destinationPoint": {
      "coordinates": [
        -3,
        69
      ],
      "line1": "Address 1",
      "city": "City 2",
      "postalCode": "20000",
      "primary": false,
      "state": "state"
    },
    "startedAt": "2016-11-01T02:08:01",
    "completedAt": "2016-11-01T05:53:23"
  },
  {
    "status": "waiting",
    "missionName": "Lorem Ipsum Mission Title",
    "rating": 4,
    "startingPoint": {
      "coordinates": [
        73,
        56
      ],
      "line1": "Address 1",
      "city": "City 1",
      "postalCode": "10000",
      "primary": true,
      "state": "state"
    },
    "destinationPoint": {
      "coordinates": [
        -3,
        69
      ],
      "line1": "Address 1",
      "city": "City 2",
      "postalCode": "20000",
      "primary": false,
      "state": "state"
    }
  },
  {
    "status": "waiting",
    "missionName": "Lorem Ipsum Mission Title",
    "rating": 4,
    "startingPoint": {
      "coordinates": [
        73,
        56
      ],
      "line1": "Address 1",
      "city": "City 1",
      "postalCode": "10000",
      "primary": true,
      "state": "state"
    },
    "destinationPoint": {
      "coordinates": [
        -3,
        69
      ],
      "line1": "Address 1",
      "city": "City 2",
      "postalCode": "20000",
      "primary": false,
      "state": "state"
    }
  },
  {
    "status": "waiting",
    "missionName": "Lorem Ipsum Mission Title",
    "rating": 4,
    "startingPoint": {
      "coordinates": [
        73,
        56
      ],
      "line1": "Address 1",
      "city": "City 1",
      "postalCode": "10000",
      "primary": true,
      "state": "state"
    },
    "destinationPoint": {
      "coordinates": [
        -3,
        69
      ],
      "line1": "Address 1",
      "city": "City 2",
      "postalCode": "20000",
      "primary": false,
      "state": "state"
    }
  },
  {
    "status": "waiting",
    "missionName": "Lorem Ipsum Mission Title",
    "rating": 4,
    "startingPoint": {
      "coordinates": [
        73,
        56
      ],
      "line1": "Address 1",
      "city": "City 1",
      "postalCode": "10000",
      "primary": true,
      "state": "state"
    },
    "destinationPoint": {
      "coordinates": [
        -3,
        69
      ],
      "line1": "Address 1",
      "city": "City 2",
      "postalCode": "20000",
      "primary": false,
      "state": "state"
    }
  },
  {
    "status": "waiting",
    "missionName": "Lorem Ipsum Mission Title",
    "rating": 4,
    "startingPoint": {
      "coordinates": [
        73,
        56
      ],
      "line1": "Address 1",
      "city": "City 1",
      "postalCode": "10000",
      "primary": true,
      "state": "state"
    },
    "destinationPoint": {
      "coordinates": [
        -3,
        69
      ],
      "line1": "Address 1",
      "city": "City 2",
      "postalCode": "20000",
      "primary": false,
      "state": "state"
    }
  },
  {
    "status": "waiting",
    "missionName": "Lorem Ipsum Mission Title",
    "rating": 4,
    "startingPoint": {
      "coordinates": [
        73,
        56
      ],
      "line1": "Address 1",
      "city": "City 1",
      "postalCode": "10000",
      "primary": true,
      "state": "state"
    },
    "destinationPoint": {
      "coordinates": [
        -3,
        69
      ],
      "line1": "Address 1",
      "city": "City 2",
      "postalCode": "20000",
      "primary": false,
      "state": "state"
    }
  },
  {
    "status": "waiting",
    "missionName": "Lorem Ipsum Mission Title",
    "rating": 4,
    "startingPoint": {
      "coordinates": [
        73,
        56
      ],
      "line1": "Address 1",
      "city": "City 1",
      "postalCode": "10000",
      "primary": true,
      "state": "state"
    },
    "destinationPoint": {
      "coordinates": [
        -3,
        69
      ],
      "line1": "Address 1",
      "city": "City 2",
      "postalCode": "20000",
      "primary": false,
      "state": "state"
    }
  },
  {
    "status": "waiting",
    "missionName": "Lorem Ipsum Mission Title",
    "rating": 4,
    "startingPoint": {
      "coordinates": [
        73,
        56
      ],
      "line1": "Address 1",
      "city": "City 1",
      "postalCode": "10000",
      "primary": true,
      "state": "state"
    },
    "destinationPoint": {
      "coordinates": [
        -3,
        69
      ],
      "line1": "Address 1",
      "city": "City 2",
      "postalCode": "20000",
      "primary": false,
      "state": "state"
    }
  },
  {
    "status": "waiting",
    "missionName": "Lorem Ipsum Mission Title",
    "rating": 4,
    "startingPoint": {
      "coordinates": [
        73,
        56
      ],
      "line1": "Address 1",
      "city": "City 1",
      "postalCode": "10000",
      "primary": true,
      "state": "state"
    },
    "destinationPoint": {
      "coordinates": [
        -3,
        69
      ],
      "line1": "Address 1",
      "city": "City 2",
      "postalCode": "20000",
      "primary": false,
      "state": "state"
    }
  },
  {
    "status": "waiting",
    "missionName": "Lorem Ipsum Mission Title",
    "rating": 4,
    "startingPoint": {
      "coordinates": [
        73,
        56
      ],
      "line1": "Address 1",
      "city": "City 1",
      "postalCode": "10000",
      "primary": true,
      "state": "state"
    },
    "destinationPoint": {
      "coordinates": [
        -3,
        69
      ],
      "line1": "Address 1",
      "city": "City 2",
      "postalCode": "20000",
      "primary": false,
      "state": "state"
    }
  },
  {
    "status": "waiting",
    "missionName": "Lorem Ipsum Mission Title",
    "rating": 4,
    "startingPoint": {
      "coordinates": [
        73,
        56
      ],
      "line1": "Address 1",
      "city": "City 1",
      "postalCode": "10000",
      "primary": true,
      "state": "state"
    },
    "destinationPoint": {
      "coordinates": [
        -3,
        69
      ],
      "line1": "Address 1",
      "city": "City 2",
      "postalCode": "20000",
      "primary": false,
      "state": "state"
    }
  },
  {
    "status": "waiting",
    "missionName": "Lorem Ipsum Mission Title",
    "rating": 4,
    "startingPoint": {
      "coordinates": [
        73,
        56
      ],
      "line1": "Address 1",
      "city": "City 1",
      "postalCode": "10000",
      "primary": true,
      "state": "state"
    },
    "destinationPoint": {
      "coordinates": [
        -3,
        69
      ],
      "line1": "Address 1",
      "city": "City 2",
      "postalCode": "20000",
      "primary": false,
      "state": "state"
    }
  },
  {
    "status": "waiting",
    "missionName": "Lorem Ipsum Mission Title",
    "rating": 4,
    "startingPoint": {
      "coordinates": [
        73,
        56
      ],
      "line1": "Address 1",
      "city": "City 1",
      "postalCode": "10000",
      "primary": true,
      "state": "state"
    },
    "destinationPoint": {
      "coordinates": [
        -3,
        69
      ],
      "line1": "Address 1",
      "city": "City 2",
      "postalCode": "20000",
      "primary": false,
      "state": "state"
    }
  },
  {
    "status": "waiting",
    "missionName": "Lorem Ipsum Mission Title",
    "rating": 4,
    "startingPoint": {
      "coordinates": [
        73,
        56
      ],
      "line1": "Address 1",
      "city": "City 1",
      "postalCode": "10000",
      "primary": true,
      "state": "state"
    },
    "destinationPoint": {
      "coordinates": [
        -3,
        69
      ],
      "line1": "Address 1",
      "city": "City 2",
      "postalCode": "20000",
      "primary": false,
      "state": "state"
    }
  },
  {
    "status": "waiting",
    "missionName": "Lorem Ipsum Mission Title",
    "rating": 4,
    "startingPoint": {
      "coordinates": [
        73,
        56
      ],
      "line1": "Address 1",
      "city": "City 1",
      "postalCode": "10000",
      "primary": true,
      "state": "state"
    },
    "destinationPoint": {
      "coordinates": [
        -3,
        69
      ],
      "line1": "Address 1",
      "city": "City 2",
      "postalCode": "20000",
      "primary": false,
      "state": "state"
    }
  },
  {
    "status": "waiting",
    "missionName": "Lorem Ipsum Mission Title",
    "rating": 4,
    "startingPoint": {
      "coordinates": [
        73,
        56
      ],
      "line1": "Address 1",
      "city": "City 1",
      "postalCode": "10000",
      "primary": true,
      "state": "state"
    },
    "destinationPoint": {
      "coordinates": [
        -3,
        69
      ],
      "line1": "Address 1",
      "city": "City 2",
      "postalCode": "20000",
      "primary": false,
      "state": "state"
    }
  },
  {
    "status": "waiting",
    "missionName": "Lorem Ipsum Mission Title",
    "rating": 4,
    "startingPoint": {
      "coordinates": [
        73,
        56
      ],
      "line1": "Address 1",
      "city": "City 1",
      "postalCode": "10000",
      "primary": true,
      "state": "state"
    },
    "destinationPoint": {
      "coordinates": [
        -3,
        69
      ],
      "line1": "Address 1",
      "city": "City 2",
      "postalCode": "20000",
      "primary": false,
      "state": "state"
    }
  },
  {
    "status": "waiting",
    "missionName": "Lorem Ipsum Mission Title",
    "rating": 4,
    "startingPoint": {
      "coordinates": [
        73,
        56
      ],
      "line1": "Address 1",
      "city": "City 1",
      "postalCode": "10000",
      "primary": true,
      "state": "state"
    },
    "destinationPoint": {
      "coordinates": [
        -3,
        69
      ],
      "line1": "Address 1",
      "city": "City 2",
      "postalCode": "20000",
      "primary": false,
      "state": "state"
    }
  },
  {
    "status": "waiting",
    "missionName": "Lorem Ipsum Mission Title",
    "rating": 4,
    "startingPoint": {
      "coordinates": [
        73,
        56
      ],
      "line1": "Address 1",
      "city": "City 1",
      "postalCode": "10000",
      "primary": true,
      "state": "state"
    },
    "destinationPoint": {
      "coordinates": [
        -3,
        69
      ],
      "line1": "Address 1",
      "city": "City 2",
      "postalCode": "20000",
      "primary": false,
      "state": "state"
    }
  },
  {
    "status": "waiting",
    "missionName": "Lorem Ipsum Mission Title",
    "rating": 4,
    "startingPoint": {
      "coordinates": [
        73,
        56
      ],
      "line1": "Address 1",
      "city": "City 1",
      "postalCode": "10000",
      "primary": true,
      "state": "state"
    },
    "destinationPoint": {
      "coordinates": [
        -3,
        69
      ],
      "line1": "Address 1",
      "city": "City 2",
      "postalCode": "20000",
      "primary": false,
      "state": "state"
    }
  },
  {
    "status": "waiting",
    "missionName": "Lorem Ipsum Mission Title",
    "rating": 4,
    "startingPoint": {
      "coordinates": [
        73,
        56
      ],
      "line1": "Address 1",
      "city": "City 1",
      "postalCode": "10000",
      "primary": true,
      "state": "state"
    },
    "destinationPoint": {
      "coordinates": [
        -3,
        69
      ],
      "line1": "Address 1",
      "city": "City 2",
      "postalCode": "20000",
      "primary": false,
      "state": "state"
    }
  },
  {
    "status": "waiting",
    "missionName": "Lorem Ipsum Mission Title",
    "rating": 4,
    "startingPoint": {
      "coordinates": [
        73,
        56
      ],
      "line1": "Address 1",
      "city": "City 1",
      "postalCode": "10000",
      "primary": true,
      "state": "state"
    },
    "destinationPoint": {
      "coordinates": [
        -3,
        69
      ],
      "line1": "Address 1",
      "city": "City 2",
      "postalCode": "20000",
      "primary": false,
      "state": "state"
    }
  },
  {
    "status": "waiting",
    "missionName": "Lorem Ipsum Mission Title",
    "rating": 4,
    "startingPoint": {
      "coordinates": [
        73,
        56
      ],
      "line1": "Address 1",
      "city": "City 1",
      "postalCode": "10000",
      "primary": true,
      "state": "state"
    },
    "destinationPoint": {
      "coordinates": [
        -3,
        69
      ],
      "line1": "Address 1",
      "city": "City 2",
      "postalCode": "20000",
      "primary": false,
      "state": "state"
    }
  },
  {
    "status": "waiting",
    "missionName": "Lorem Ipsum Mission Title",
    "rating": 4,
    "startingPoint": {
      "coordinates": [
        73,
        56
      ],
      "line1": "Address 1",
      "city": "City 1",
      "postalCode": "10000",
      "primary": true,
      "state": "state"
    },
    "destinationPoint": {
      "coordinates": [
        -3,
        69
      ],
      "line1": "Address 1",
      "city": "City 2",
      "postalCode": "20000",
      "primary": false,
      "state": "state"
    }
  },
  {
    "status": "waiting",
    "missionName": "Lorem Ipsum Mission Title",
    "rating": 4,
    "startingPoint": {
      "coordinates": [
        73,
        56
      ],
      "line1": "Address 1",
      "city": "City 1",
      "postalCode": "10000",
      "primary": true,
      "state": "state"
    },
    "destinationPoint": {
      "coordinates": [
        -3,
        69
      ],
      "line1": "Address 1",
      "city": "City 2",
      "postalCode": "20000",
      "primary": false,
      "state": "state"
    }
  },
  {
    "status": "waiting",
    "missionName": "Lorem Ipsum Mission Title",
    "rating": 4,
    "startingPoint": {
      "coordinates": [
        73,
        56
      ],
      "line1": "Address 1",
      "city": "City 1",
      "postalCode": "10000",
      "primary": true,
      "state": "state"
    },
    "destinationPoint": {
      "coordinates": [
        -3,
        69
      ],
      "line1": "Address 1",
      "city": "City 2",
      "postalCode": "20000",
      "primary": false,
      "state": "state"
    }
  },
  {
    "status": "waiting",
    "missionName": "Lorem Ipsum Mission Title",
    "rating": 4,
    "startingPoint": {
      "coordinates": [
        73,
        56
      ],
      "line1": "Address 1",
      "city": "City 1",
      "postalCode": "10000",
      "primary": true,
      "state": "state"
    },
    "destinationPoint": {
      "coordinates": [
        -3,
        69
      ],
      "line1": "Address 1",
      "city": "City 2",
      "postalCode": "20000",
      "primary": false,
      "state": "state"
    }
  },
  {
    "status": "waiting",
    "missionName": "Lorem Ipsum Mission Title",
    "rating": 4,
    "startingPoint": {
      "coordinates": [
        73,
        56
      ],
      "line1": "Address 1",
      "city": "City 1",
      "postalCode": "10000",
      "primary": true,
      "state": "state"
    },
    "destinationPoint": {
      "coordinates": [
        -3,
        69
      ],
      "line1": "Address 1",
      "city": "City 2",
      "postalCode": "20000",
      "primary": false,
      "state": "state"
    }
  },
  {
    "status": "waiting",
    "missionName": "Lorem Ipsum Mission Title",
    "rating": 4,
    "startingPoint": {
      "coordinates": [
        73,
        56
      ],
      "line1": "Address 1",
      "city": "City 1",
      "postalCode": "10000",
      "primary": true,
      "state": "state"
    },
    "destinationPoint": {
      "coordinates": [
        -3,
        69
      ],
      "line1": "Address 1",
      "city": "City 2",
      "postalCode": "20000",
      "primary": false,
      "state": "state"
    }
  },
  {
    "status": "waiting",
    "missionName": "Lorem Ipsum Mission Title",
    "rating": 4,
    "startingPoint": {
      "coordinates": [
        73,
        56
      ],
      "line1": "Address 1",
      "city": "City 1",
      "postalCode": "10000",
      "primary": true,
      "state": "state"
    },
    "destinationPoint": {
      "coordinates": [
        -3,
        69
      ],
      "line1": "Address 1",
      "city": "City 2",
      "postalCode": "20000",
      "primary": false,
      "state": "state"
    }
  },
  {
    "status": "waiting",
    "missionName": "Lorem Ipsum Mission Title",
    "rating": 4,
    "startingPoint": {
      "coordinates": [
        73,
        56
      ],
      "line1": "Address 1",
      "city": "City 1",
      "postalCode": "10000",
      "primary": true,
      "state": "state"
    },
    "destinationPoint": {
      "coordinates": [
        -3,
        69
      ],
      "line1": "Address 1",
      "city": "City 2",
      "postalCode": "20000",
      "primary": false,
      "state": "state"
    }
  },
  {
    "status": "waiting",
    "missionName": "Lorem Ipsum Mission Title",
    "rating": 4,
    "startingPoint": {
      "coordinates": [
        73,
        56
      ],
      "line1": "Address 1",
      "city": "City 1",
      "postalCode": "10000",
      "primary": true,
      "state": "state"
    },
    "destinationPoint": {
      "coordinates": [
        -3,
        69
      ],
      "line1": "Address 1",
      "city": "City 2",
      "postalCode": "20000",
      "primary": false,
      "state": "state"
    }
  },
  {
    "status": "waiting",
    "missionName": "Lorem Ipsum Mission Title",
    "rating": 4,
    "startingPoint": {
      "coordinates": [
        73,
        56
      ],
      "line1": "Address 1",
      "city": "City 1",
      "postalCode": "10000",
      "primary": true,
      "state": "state"
    },
    "destinationPoint": {
      "coordinates": [
        -3,
        69
      ],
      "line1": "Address 1",
      "city": "City 2",
      "postalCode": "20000",
      "primary": false,
      "state": "state"
    }
  },
  {
    "status": "waiting",
    "missionName": "Lorem Ipsum Mission Title",
    "rating": 4,
    "startingPoint": {
      "coordinates": [
        73,
        56
      ],
      "line1": "Address 1",
      "city": "City 1",
      "postalCode": "10000",
      "primary": true,
      "state": "state"
    },
    "destinationPoint": {
      "coordinates": [
        -3,
        69
      ],
      "line1": "Address 1",
      "city": "City 2",
      "postalCode": "20000",
      "primary": false,
      "state": "state"
    }
  },
  {
    "status": "waiting",
    "missionName": "Lorem Ipsum Mission Title",
    "rating": 4,
    "startingPoint": {
      "coordinates": [
        73,
        56
      ],
      "line1": "Address 1",
      "city": "City 1",
      "postalCode": "10000",
      "primary": true,
      "state": "state"
    },
    "destinationPoint": {
      "coordinates": [
        -3,
        69
      ],
      "line1": "Address 1",
      "city": "City 2",
      "postalCode": "20000",
      "primary": false,
      "state": "state"
    }
  },
  {
    "status": "waiting",
    "missionName": "Lorem Ipsum Mission Title",
    "rating": 4,
    "startingPoint": {
      "coordinates": [
        73,
        56
      ],
      "line1": "Address 1",
      "city": "City 1",
      "postalCode": "10000",
      "primary": true,
      "state": "state"
    },
    "destinationPoint": {
      "coordinates": [
        -3,
        69
      ],
      "line1": "Address 1",
      "city": "City 2",
      "postalCode": "20000",
      "primary": false,
      "state": "state"
    }
  },
  {
    "status": "completed",
    "missionName": "Lorem Ipsum Mission Title",
    "rating": 4,
    "startingPoint": {
      "coordinates": [
        73,
        56
      ],
      "line1": "Address 1",
      "city": "City 1",
      "postalCode": "10000",
      "primary": true,
      "state": "state"
    },
    "destinationPoint": {
      "coordinates": [
        -3,
        69
      ],
      "line1": "Address 1",
      "city": "City 2",
      "postalCode": "20000",
      "primary": false,
      "state": "state"
    },
    "startedAt": "2016-11-01T02:08:01",
    "completedAt": "2016-11-01T05:53:23"
  },
  {
    "status": "completed",
    "missionName": "Lorem Ipsum Mission Title",
    "rating": 4,
    "startingPoint": {
      "coordinates": [
        73,
        56
      ],
      "line1": "Address 1",
      "city": "City 1",
      "postalCode": "10000",
      "primary": true,
      "state": "state"
    },
    "destinationPoint": {
      "coordinates": [
        -3,
        69
      ],
      "line1": "Address 1",
      "city": "City 2",
      "postalCode": "20000",
      "primary": false,
      "state": "state"
    },
    "startedAt": "2016-11-01T02:08:01",
    "completedAt": "2016-11-01T05:53:23"
  },
  {
    "status": "completed",
    "missionName": "Lorem Ipsum Mission Title",
    "rating": 4,
    "startingPoint": {
      "coordinates": [
        73,
        56
      ],
      "line1": "Address 1",
      "city": "City 1",
      "postalCode": "10000",
      "primary": true,
      "state": "state"
    },
    "destinationPoint": {
      "coordinates": [
        -3,
        69
      ],
      "line1": "Address 1",
      "city": "City 2",
      "postalCode": "20000",
      "primary": false,
      "state": "state"
    },
    "startedAt": "2016-11-01T02:08:01",
    "completedAt": "2016-11-01T05:53:23"
  },
  {
    "status": "completed",
    "missionName": "Lorem Ipsum Mission Title",
    "rating": 4,
    "startingPoint": {
      "coordinates": [
        73,
        56
      ],
      "line1": "Address 1",
      "city": "City 1",
      "postalCode": "10000",
      "primary": true,
      "state": "state"
    },
    "destinationPoint": {
      "coordinates": [
        -3,
        69
      ],
      "line1": "Address 1",
      "city": "City 2",
      "postalCode": "20000",
      "primary": false,
      "state": "state"
    },
    "startedAt": "2016-11-01T02:08:01",
    "completedAt": "2016-11-01T05:53:23"
  },
  {
    "status": "completed",
    "missionName": "Lorem Ipsum Mission Title",
    "rating": 4,
    "startingPoint": {
      "coordinates": [
        73,
        56
      ],
      "line1": "Address 1",
      "city": "City 1",
      "postalCode": "10000",
      "primary": true,
      "state": "state"
    },
    "destinationPoint": {
      "coordinates": [
        -3,
        69
      ],
      "line1": "Address 1",
      "city": "City 2",
      "postalCode": "20000",
      "primary": false,
      "state": "state"
    },
    "startedAt": "2016-11-01T02:08:01",
    "completedAt": "2016-11-01T05:53:23"
  },
  {
    "status": "completed",
    "missionName": "Lorem Ipsum Mission Title",
    "rating": 4,
    "startingPoint": {
      "coordinates": [
        73,
        56
      ],
      "line1": "Address 1",
      "city": "City 1",
      "postalCode": "10000",
      "primary": true,
      "state": "state"
    },
    "destinationPoint": {
      "coordinates": [
        -3,
        69
      ],
      "line1": "Address 1",
      "city": "City 2",
      "postalCode": "20000",
      "primary": false,
      "state": "state"
    },
    "startedAt": "2016-11-01T02:08:01",
    "completedAt": "2016-11-01T05:53:23"
  },
  {
    "status": "completed",
    "missionName": "Lorem Ipsum Mission Title",
    "rating": 4,
    "startingPoint": {
      "coordinates": [
        73,
        56
      ],
      "line1": "Address 1",
      "city": "City 1",
      "postalCode": "10000",
      "primary": true,
      "state": "state"
    },
    "destinationPoint": {
      "coordinates": [
        -3,
        69
      ],
      "line1": "Address 1",
      "city": "City 2",
      "postalCode": "20000",
      "primary": false,
      "state": "state"
    },
    "startedAt": "2016-11-01T02:08:01",
    "completedAt": "2016-11-01T05:53:23"
  },
  {
    "status": "completed",
    "missionName": "Lorem Ipsum Mission Title",
    "rating": 4,
    "startingPoint": {
      "coordinates": [
        73,
        56
      ],
      "line1": "Address 1",
      "city": "City 1",
      "postalCode": "10000",
      "primary": true,
      "state": "state"
    },
    "destinationPoint": {
      "coordinates": [
        -3,
        69
      ],
      "line1": "Address 1",
      "city": "City 2",
      "postalCode": "20000",
      "primary": false,
      "state": "state"
    },
    "startedAt": "2016-11-01T02:08:01",
    "completedAt": "2016-11-01T05:53:23"
  },
  {
    "status": "completed",
    "missionName": "Lorem Ipsum Mission Title",
    "rating": 4,
    "startingPoint": {
      "coordinates": [
        73,
        56
      ],
      "line1": "Address 1",
      "city": "City 1",
      "postalCode": "10000",
      "primary": true,
      "state": "state"
    },
    "destinationPoint": {
      "coordinates": [
        -3,
        69
      ],
      "line1": "Address 1",
      "city": "City 2",
      "postalCode": "20000",
      "primary": false,
      "state": "state"
    },
    "startedAt": "2016-11-01T02:08:01",
    "completedAt": "2016-11-01T05:53:23"
  },
  {
    "status": "completed",
    "missionName": "Lorem Ipsum Mission Title",
    "rating": 4,
    "startingPoint": {
      "coordinates": [
        73,
        56
      ],
      "line1": "Address 1",
      "city": "City 1",
      "postalCode": "10000",
      "primary": true,
      "state": "state"
    },
    "destinationPoint": {
      "coordinates": [
        -3,
        69
      ],
      "line1": "Address 1",
      "city": "City 2",
      "postalCode": "20000",
      "primary": false,
      "state": "state"
    },
    "startedAt": "2016-11-01T02:08:01",
    "completedAt": "2016-11-01T05:53:23"
  },
  {
    "status": "completed",
    "missionName": "Lorem Ipsum Mission Title",
    "rating": 4,
    "startingPoint": {
      "coordinates": [
        73,
        56
      ],
      "line1": "Address 1",
      "city": "City 1",
      "postalCode": "10000",
      "primary": true,
      "state": "state"
    },
    "destinationPoint": {
      "coordinates": [
        -3,
        69
      ],
      "line1": "Address 1",
      "city": "City 2",
      "postalCode": "20000",
      "primary": false,
      "state": "state"
    },
    "startedAt": "2016-11-01T02:08:01",
    "completedAt": "2016-11-01T05:53:23"
  },
  {
    "status": "completed",
    "missionName": "Lorem Ipsum Mission Title",
    "rating": 4,
    "startingPoint": {
      "coordinates": [
        73,
        56
      ],
      "line1": "Address 1",
      "city": "City 1",
      "postalCode": "10000",
      "primary": true,
      "state": "state"
    },
    "destinationPoint": {
      "coordinates": [
        -3,
        69
      ],
      "line1": "Address 1",
      "city": "City 2",
      "postalCode": "20000",
      "primary": false,
      "state": "state"
    },
    "startedAt": "2016-11-01T02:08:01",
    "completedAt": "2016-11-01T05:53:23"
  },
  {
    "status": "completed",
    "missionName": "Lorem Ipsum Mission Title",
    "rating": 4,
    "startingPoint": {
      "coordinates": [
        73,
        56
      ],
      "line1": "Address 1",
      "city": "City 1",
      "postalCode": "10000",
      "primary": true,
      "state": "state"
    },
    "destinationPoint": {
      "coordinates": [
        -3,
        69
      ],
      "line1": "Address 1",
      "city": "City 2",
      "postalCode": "20000",
      "primary": false,
      "state": "state"
    },
    "startedAt": "2016-11-01T02:08:01",
    "completedAt": "2016-11-01T05:53:23"
  },
  {
    "status": "completed",
    "missionName": "Lorem Ipsum Mission Title",
    "rating": 4,
    "startingPoint": {
      "coordinates": [
        73,
        56
      ],
      "line1": "Address 1",
      "city": "City 1",
      "postalCode": "10000",
      "primary": true,
      "state": "state"
    },
    "destinationPoint": {
      "coordinates": [
        -3,
        69
      ],
      "line1": "Address 1",
      "city": "City 2",
      "postalCode": "20000",
      "primary": false,
      "state": "state"
    },
    "startedAt": "2016-11-01T02:08:01",
    "completedAt": "2016-11-01T05:53:23"
  },
  {
    "status": "completed",
    "missionName": "Lorem Ipsum Mission Title",
    "rating": 4,
    "startingPoint": {
      "coordinates": [
        73,
        56
      ],
      "line1": "Address 1",
      "city": "City 1",
      "postalCode": "10000",
      "primary": true,
      "state": "state"
    },
    "destinationPoint": {
      "coordinates": [
        -3,
        69
      ],
      "line1": "Address 1",
      "city": "City 2",
      "postalCode": "20000",
      "primary": false,
      "state": "state"
    },
    "startedAt": "2016-11-01T02:08:01",
    "completedAt": "2016-11-01T05:53:23"
  },
  {
    "status": "completed",
    "missionName": "Lorem Ipsum Mission Title",
    "rating": 4,
    "startingPoint": {
      "coordinates": [
        73,
        56
      ],
      "line1": "Address 1",
      "city": "City 1",
      "postalCode": "10000",
      "primary": true,
      "state": "state"
    },
    "destinationPoint": {
      "coordinates": [
        -3,
        69
      ],
      "line1": "Address 1",
      "city": "City 2",
      "postalCode": "20000",
      "primary": false,
      "state": "state"
    },
    "startedAt": "2016-11-01T02:08:01",
    "completedAt": "2016-11-01T05:53:23"
  },
  {
    "status": "completed",
    "missionName": "Lorem Ipsum Mission Title",
    "rating": 4,
    "startingPoint": {
      "coordinates": [
        73,
        56
      ],
      "line1": "Address 1",
      "city": "City 1",
      "postalCode": "10000",
      "primary": true,
      "state": "state"
    },
    "destinationPoint": {
      "coordinates": [
        -3,
        69
      ],
      "line1": "Address 1",
      "city": "City 2",
      "postalCode": "20000",
      "primary": false,
      "state": "state"
    },
    "startedAt": "2016-11-01T02:08:01",
    "completedAt": "2016-11-01T05:53:23"
  },
  {
    "status": "completed",
    "missionName": "Lorem Ipsum Mission Title",
    "rating": 4,
    "startingPoint": {
      "coordinates": [
        73,
        56
      ],
      "line1": "Address 1",
      "city": "City 1",
      "postalCode": "10000",
      "primary": true,
      "state": "state"
    },
    "destinationPoint": {
      "coordinates": [
        -3,
        69
      ],
      "line1": "Address 1",
      "city": "City 2",
      "postalCode": "20000",
      "primary": false,
      "state": "state"
    },
    "startedAt": "2016-11-01T02:08:01",
    "completedAt": "2016-11-01T05:53:23"
  },
  {
    "status": "completed",
    "missionName": "Lorem Ipsum Mission Title",
    "rating": 4,
    "startingPoint": {
      "coordinates": [
        73,
        56
      ],
      "line1": "Address 1",
      "city": "City 1",
      "postalCode": "10000",
      "primary": true,
      "state": "state"
    },
    "destinationPoint": {
      "coordinates": [
        -3,
        69
      ],
      "line1": "Address 1",
      "city": "City 2",
      "postalCode": "20000",
      "primary": false,
      "state": "state"
    },
    "startedAt": "2016-11-01T02:08:01",
    "completedAt": "2016-11-01T05:53:23"
  },
  {
    "status": "completed",
    "missionName": "Lorem Ipsum Mission Title",
    "rating": 4,
    "startingPoint": {
      "coordinates": [
        73,
        56
      ],
      "line1": "Address 1",
      "city": "City 1",
      "postalCode": "10000",
      "primary": true,
      "state": "state"
    },
    "destinationPoint": {
      "coordinates": [
        -3,
        69
      ],
      "line1": "Address 1",
      "city": "City 2",
      "postalCode": "20000",
      "primary": false,
      "state": "state"
    },
    "startedAt": "2016-11-01T02:08:01",
    "completedAt": "2016-11-01T05:53:23"
  },
  {
    "status": "completed",
    "missionName": "Lorem Ipsum Mission Title",
    "rating": 4,
    "startingPoint": {
      "coordinates": [
        73,
        56
      ],
      "line1": "Address 1",
      "city": "City 1",
      "postalCode": "10000",
      "primary": true,
      "state": "state"
    },
    "destinationPoint": {
      "coordinates": [
        -3,
        69
      ],
      "line1": "Address 1",
      "city": "City 2",
      "postalCode": "20000",
      "primary": false,
      "state": "state"
    },
    "startedAt": "2016-11-01T02:08:01",
    "completedAt": "2016-11-01T05:53:23"
  },
  {
    "status": "completed",
    "missionName": "Lorem Ipsum Mission Title",
    "rating": 4,
    "startingPoint": {
      "coordinates": [
        73,
        56
      ],
      "line1": "Address 1",
      "city": "City 1",
      "postalCode": "10000",
      "primary": true,
      "state": "state"
    },
    "destinationPoint": {
      "coordinates": [
        -3,
        69
      ],
      "line1": "Address 1",
      "city": "City 2",
      "postalCode": "20000",
      "primary": false,
      "state": "state"
    },
    "startedAt": "2016-11-01T02:08:01",
    "completedAt": "2016-11-01T05:53:23"
  },
  {
    "status": "completed",
    "missionName": "Lorem Ipsum Mission Title",
    "rating": 4,
    "startingPoint": {
      "coordinates": [
        73,
        56
      ],
      "line1": "Address 1",
      "city": "City 1",
      "postalCode": "10000",
      "primary": true,
      "state": "state"
    },
    "destinationPoint": {
      "coordinates": [
        -3,
        69
      ],
      "line1": "Address 1",
      "city": "City 2",
      "postalCode": "20000",
      "primary": false,
      "state": "state"
    },
    "startedAt": "2016-11-01T02:08:01",
    "completedAt": "2016-11-01T05:53:23"
  },
  {
    "status": "completed",
    "missionName": "Lorem Ipsum Mission Title",
    "rating": 4,
    "startingPoint": {
      "coordinates": [
        73,
        56
      ],
      "line1": "Address 1",
      "city": "City 1",
      "postalCode": "10000",
      "primary": true,
      "state": "state"
    },
    "destinationPoint": {
      "coordinates": [
        -3,
        69
      ],
      "line1": "Address 1",
      "city": "City 2",
      "postalCode": "20000",
      "primary": false,
      "state": "state"
    },
    "startedAt": "2016-11-01T02:08:01",
    "completedAt": "2016-11-01T05:53:23"
  },
  {
    "status": "completed",
    "missionName": "Lorem Ipsum Mission Title",
    "rating": 4,
    "startingPoint": {
      "coordinates": [
        73,
        56
      ],
      "line1": "Address 1",
      "city": "City 1",
      "postalCode": "10000",
      "primary": true,
      "state": "state"
    },
    "destinationPoint": {
      "coordinates": [
        -3,
        69
      ],
      "line1": "Address 1",
      "city": "City 2",
      "postalCode": "20000",
      "primary": false,
      "state": "state"
    },
    "startedAt": "2016-11-01T02:08:01",
    "completedAt": "2016-11-01T05:53:23"
  },
  {
    "status": "completed",
    "missionName": "Lorem Ipsum Mission Title",
    "rating": 4,
    "startingPoint": {
      "coordinates": [
        73,
        56
      ],
      "line1": "Address 1",
      "city": "City 1",
      "postalCode": "10000",
      "primary": true,
      "state": "state"
    },
    "destinationPoint": {
      "coordinates": [
        -3,
        69
      ],
      "line1": "Address 1",
      "city": "City 2",
      "postalCode": "20000",
      "primary": false,
      "state": "state"
    },
    "startedAt": "2016-11-01T02:08:01",
    "completedAt": "2016-11-01T05:53:23"
  },
  {
    "status": "completed",
    "missionName": "Lorem Ipsum Mission Title",
    "rating": 4,
    "startingPoint": {
      "coordinates": [
        73,
        56
      ],
      "line1": "Address 1",
      "city": "City 1",
      "postalCode": "10000",
      "primary": true,
      "state": "state"
    },
    "destinationPoint": {
      "coordinates": [
        -3,
        69
      ],
      "line1": "Address 1",
      "city": "City 2",
      "postalCode": "20000",
      "primary": false,
      "state": "state"
    },
    "startedAt": "2016-11-01T02:08:01",
    "completedAt": "2016-11-01T05:53:23"
  },
  {
    "status": "completed",
    "missionName": "Lorem Ipsum Mission Title",
    "rating": 4,
    "startingPoint": {
      "coordinates": [
        73,
        56
      ],
      "line1": "Address 1",
      "city": "City 1",
      "postalCode": "10000",
      "primary": true,
      "state": "state"
    },
    "destinationPoint": {
      "coordinates": [
        -3,
        69
      ],
      "line1": "Address 1",
      "city": "City 2",
      "postalCode": "20000",
      "primary": false,
      "state": "state"
    },
    "startedAt": "2016-11-01T02:08:01",
    "completedAt": "2016-11-01T05:53:23"
  },
  {
    "status": "completed",
    "missionName": "Lorem Ipsum Mission Title",
    "rating": 4,
    "startingPoint": {
      "coordinates": [
        73,
        56
      ],
      "line1": "Address 1",
      "city": "City 1",
      "postalCode": "10000",
      "primary": true,
      "state": "state"
    },
    "destinationPoint": {
      "coordinates": [
        -3,
        69
      ],
      "line1": "Address 1",
      "city": "City 2",
      "postalCode": "20000",
      "primary": false,
      "state": "state"
    },
    "startedAt": "2016-11-01T02:08:01",
    "completedAt": "2016-11-01T05:53:23"
  },
  {
    "status": "completed",
    "missionName": "Lorem Ipsum Mission Title",
    "rating": 4,
    "startingPoint": {
      "coordinates": [
        73,
        56
      ],
      "line1": "Address 1",
      "city": "City 1",
      "postalCode": "10000",
      "primary": true,
      "state": "state"
    },
    "destinationPoint": {
      "coordinates": [
        -3,
        69
      ],
      "line1": "Address 1",
      "city": "City 2",
      "postalCode": "20000",
      "primary": false,
      "state": "state"
    },
    "startedAt": "2016-11-01T02:08:01",
    "completedAt": "2016-11-01T05:53:23"
  },
  {
    "status": "waiting",
    "missionName": "Lorem Ipsum Mission Title",
    "rating": 4,
    "startingPoint": {
      "coordinates": [
        73,
        56
      ],
      "line1": "Address 1",
      "city": "City 1",
      "postalCode": "10000",
      "primary": true,
      "state": "state"
    },
    "destinationPoint": {
      "coordinates": [
        -3,
        69
      ],
      "line1": "Address 1",
      "city": "City 2",
      "postalCode": "20000",
      "primary": false,
      "state": "state"
    }
  },
  {
    "status": "waiting",
    "missionName": "Lorem Ipsum Mission Title",
    "rating": 4,
    "startingPoint": {
      "coordinates": [
        73,
        56
      ],
      "line1": "Address 1",
      "city": "City 1",
      "postalCode": "10000",
      "primary": true,
      "state": "state"
    },
    "destinationPoint": {
      "coordinates": [
        -3,
        69
      ],
      "line1": "Address 1",
      "city": "City 2",
      "postalCode": "20000",
      "primary": false,
      "state": "state"
    }
  },
  {
    "status": "waiting",
    "missionName": "Lorem Ipsum Mission Title",
    "rating": 4,
    "startingPoint": {
      "coordinates": [
        73,
        56
      ],
      "line1": "Address 1",
      "city": "City 1",
      "postalCode": "10000",
      "primary": true,
      "state": "state"
    },
    "destinationPoint": {
      "coordinates": [
        -3,
        69
      ],
      "line1": "Address 1",
      "city": "City 2",
      "postalCode": "20000",
      "primary": false,
      "state": "state"
    }
  },
  {
    "status": "waiting",
    "missionName": "Lorem Ipsum Mission Title",
    "rating": 4,
    "startingPoint": {
      "coordinates": [
        73,
        56
      ],
      "line1": "Address 1",
      "city": "City 1",
      "postalCode": "10000",
      "primary": true,
      "state": "state"
    },
    "destinationPoint": {
      "coordinates": [
        -3,
        69
      ],
      "line1": "Address 1",
      "city": "City 2",
      "postalCode": "20000",
      "primary": false,
      "state": "state"
    }
  },
  {
    "status": "waiting",
    "missionName": "Lorem Ipsum Mission Title",
    "rating": 4,
    "startingPoint": {
      "coordinates": [
        73,
        56
      ],
      "line1": "Address 1",
      "city": "City 1",
      "postalCode": "10000",
      "primary": true,
      "state": "state"
    },
    "destinationPoint": {
      "coordinates": [
        -3,
        69
      ],
      "line1": "Address 1",
      "city": "City 2",
      "postalCode": "20000",
      "primary": false,
      "state": "state"
    }
  },
  {
    "status": "waiting",
    "missionName": "Lorem Ipsum Mission Title",
    "rating": 4,
    "startingPoint": {
      "coordinates": [
        73,
        56
      ],
      "line1": "Address 1",
      "city": "City 1",
      "postalCode": "10000",
      "primary": true,
      "state": "state"
    },
    "destinationPoint": {
      "coordinates": [
        -3,
        69
      ],
      "line1": "Address 1",
      "city": "City 2",
      "postalCode": "20000",
      "primary": false,
      "state": "state"
    }
  },
  {
    "status": "waiting",
    "missionName": "Lorem Ipsum Mission Title",
    "rating": 4,
    "startingPoint": {
      "coordinates": [
        73,
        56
      ],
      "line1": "Address 1",
      "city": "City 1",
      "postalCode": "10000",
      "primary": true,
      "state": "state"
    },
    "destinationPoint": {
      "coordinates": [
        -3,
        69
      ],
      "line1": "Address 1",
      "city": "City 2",
      "postalCode": "20000",
      "primary": false,
      "state": "state"
    }
  },
  {
    "status": "waiting",
    "missionName": "Lorem Ipsum Mission Title",
    "rating": 4,
    "startingPoint": {
      "coordinates": [
        73,
        56
      ],
      "line1": "Address 1",
      "city": "City 1",
      "postalCode": "10000",
      "primary": true,
      "state": "state"
    },
    "destinationPoint": {
      "coordinates": [
        -3,
        69
      ],
      "line1": "Address 1",
      "city": "City 2",
      "postalCode": "20000",
      "primary": false,
      "state": "state"
    }
  },
  {
    "status": "waiting",
    "missionName": "Lorem Ipsum Mission Title",
    "rating": 4,
    "startingPoint": {
      "coordinates": [
        73,
        56
      ],
      "line1": "Address 1",
      "city": "City 1",
      "postalCode": "10000",
      "primary": true,
      "state": "state"
    },
    "destinationPoint": {
      "coordinates": [
        -3,
        69
      ],
      "line1": "Address 1",
      "city": "City 2",
      "postalCode": "20000",
      "primary": false,
      "state": "state"
    }
  },
  {
    "status": "waiting",
    "missionName": "Lorem Ipsum Mission Title",
    "rating": 4,
    "startingPoint": {
      "coordinates": [
        73,
        56
      ],
      "line1": "Address 1",
      "city": "City 1",
      "postalCode": "10000",
      "primary": true,
      "state": "state"
    },
    "destinationPoint": {
      "coordinates": [
        -3,
        69
      ],
      "line1": "Address 1",
      "city": "City 2",
      "postalCode": "20000",
      "primary": false,
      "state": "state"
    }
  },
  {
    "status": "waiting",
    "missionName": "Lorem Ipsum Mission Title",
    "rating": 4,
    "startingPoint": {
      "coordinates": [
        73,
        56
      ],
      "line1": "Address 1",
      "city": "City 1",
      "postalCode": "10000",
      "primary": true,
      "state": "state"
    },
    "destinationPoint": {
      "coordinates": [
        -3,
        69
      ],
      "line1": "Address 1",
      "city": "City 2",
      "postalCode": "20000",
      "primary": false,
      "state": "state"
    }
  },
  {
    "status": "waiting",
    "missionName": "Lorem Ipsum Mission Title",
    "rating": 4,
    "startingPoint": {
      "coordinates": [
        73,
        56
      ],
      "line1": "Address 1",
      "city": "City 1",
      "postalCode": "10000",
      "primary": true,
      "state": "state"
    },
    "destinationPoint": {
      "coordinates": [
        -3,
        69
      ],
      "line1": "Address 1",
      "city": "City 2",
      "postalCode": "20000",
      "primary": false,
      "state": "state"
    }
  },
  {
    "status": "waiting",
    "missionName": "Lorem Ipsum Mission Title",
    "rating": 4,
    "startingPoint": {
      "coordinates": [
        73,
        56
      ],
      "line1": "Address 1",
      "city": "City 1",
      "postalCode": "10000",
      "primary": true,
      "state": "state"
    },
    "destinationPoint": {
      "coordinates": [
        -3,
        69
      ],
      "line1": "Address 1",
      "city": "City 2",
      "postalCode": "20000",
      "primary": false,
      "state": "state"
    }
  },
  {
    "status": "waiting",
    "missionName": "Lorem Ipsum Mission Title",
    "rating": 4,
    "startingPoint": {
      "coordinates": [
        73,
        56
      ],
      "line1": "Address 1",
      "city": "City 1",
      "postalCode": "10000",
      "primary": true,
      "state": "state"
    },
    "destinationPoint": {
      "coordinates": [
        -3,
        69
      ],
      "line1": "Address 1",
      "city": "City 2",
      "postalCode": "20000",
      "primary": false,
      "state": "state"
    }
  },
  {
    "status": "waiting",
    "missionName": "Lorem Ipsum Mission Title",
    "rating": 4,
    "startingPoint": {
      "coordinates": [
        73,
        56
      ],
      "line1": "Address 1",
      "city": "City 1",
      "postalCode": "10000",
      "primary": true,
      "state": "state"
    },
    "destinationPoint": {
      "coordinates": [
        -3,
        69
      ],
      "line1": "Address 1",
      "city": "City 2",
      "postalCode": "20000",
      "primary": false,
      "state": "state"
    }
  },
  {
    "status": "waiting",
    "missionName": "Lorem Ipsum Mission Title",
    "rating": 4,
    "startingPoint": {
      "coordinates": [
        73,
        56
      ],
      "line1": "Address 1",
      "city": "City 1",
      "postalCode": "10000",
      "primary": true,
      "state": "state"
    },
    "destinationPoint": {
      "coordinates": [
        -3,
        69
      ],
      "line1": "Address 1",
      "city": "City 2",
      "postalCode": "20000",
      "primary": false,
      "state": "state"
    }
  },
  {
    "status": "waiting",
    "missionName": "Lorem Ipsum Mission Title",
    "rating": 4,
    "startingPoint": {
      "coordinates": [
        73,
        56
      ],
      "line1": "Address 1",
      "city": "City 1",
      "postalCode": "10000",
      "primary": true,
      "state": "state"
    },
    "destinationPoint": {
      "coordinates": [
        -3,
        69
      ],
      "line1": "Address 1",
      "city": "City 2",
      "postalCode": "20000",
      "primary": false,
      "state": "state"
    }
  },
  {
    "status": "waiting",
    "missionName": "Lorem Ipsum Mission Title",
    "rating": 4,
    "startingPoint": {
      "coordinates": [
        73,
        56
      ],
      "line1": "Address 1",
      "city": "City 1",
      "postalCode": "10000",
      "primary": true,
      "state": "state"
    },
    "destinationPoint": {
      "coordinates": [
        -3,
        69
      ],
      "line1": "Address 1",
      "city": "City 2",
      "postalCode": "20000",
      "primary": false,
      "state": "state"
    }
  },
  {
    "status": "waiting",
    "missionName": "Lorem Ipsum Mission Title",
    "rating": 4,
    "startingPoint": {
      "coordinates": [
        73,
        56
      ],
      "line1": "Address 1",
      "city": "City 1",
      "postalCode": "10000",
      "primary": true,
      "state": "state"
    },
    "destinationPoint": {
      "coordinates": [
        -3,
        69
      ],
      "line1": "Address 1",
      "city": "City 2",
      "postalCode": "20000",
      "primary": false,
      "state": "state"
    }
  },
  {
    "status": "waiting",
    "missionName": "Lorem Ipsum Mission Title",
    "rating": 4,
    "startingPoint": {
      "coordinates": [
        73,
        56
      ],
      "line1": "Address 1",
      "city": "City 1",
      "postalCode": "10000",
      "primary": true,
      "state": "state"
    },
    "destinationPoint": {
      "coordinates": [
        -3,
        69
      ],
      "line1": "Address 1",
      "city": "City 2",
      "postalCode": "20000",
      "primary": false,
      "state": "state"
    }
  },
  {
    "status": "waiting",
    "missionName": "Lorem Ipsum Mission Title",
    "rating": 4,
    "startingPoint": {
      "coordinates": [
        73,
        56
      ],
      "line1": "Address 1",
      "city": "City 1",
      "postalCode": "10000",
      "primary": true,
      "state": "state"
    },
    "destinationPoint": {
      "coordinates": [
        -3,
        69
      ],
      "line1": "Address 1",
      "city": "City 2",
      "postalCode": "20000",
      "primary": false,
      "state": "state"
    }
  },
  {
    "status": "waiting",
    "missionName": "Lorem Ipsum Mission Title",
    "rating": 4,
    "startingPoint": {
      "coordinates": [
        73,
        56
      ],
      "line1": "Address 1",
      "city": "City 1",
      "postalCode": "10000",
      "primary": true,
      "state": "state"
    },
    "destinationPoint": {
      "coordinates": [
        -3,
        69
      ],
      "line1": "Address 1",
      "city": "City 2",
      "postalCode": "20000",
      "primary": false,
      "state": "state"
    }
  },
  {
    "status": "waiting",
    "missionName": "Lorem Ipsum Mission Title",
    "rating": 4,
    "startingPoint": {
      "coordinates": [
        73,
        56
      ],
      "line1": "Address 1",
      "city": "City 1",
      "postalCode": "10000",
      "primary": true,
      "state": "state"
    },
    "destinationPoint": {
      "coordinates": [
        -3,
        69
      ],
      "line1": "Address 1",
      "city": "City 2",
      "postalCode": "20000",
      "primary": false,
      "state": "state"
    }
  },
  {
    "status": "waiting",
    "missionName": "Lorem Ipsum Mission Title",
    "rating": 4,
    "startingPoint": {
      "coordinates": [
        73,
        56
      ],
      "line1": "Address 1",
      "city": "City 1",
      "postalCode": "10000",
      "primary": true,
      "state": "state"
    },
    "destinationPoint": {
      "coordinates": [
        -3,
        69
      ],
      "line1": "Address 1",
      "city": "City 2",
      "postalCode": "20000",
      "primary": false,
      "state": "state"
    }
  },
  {
    "status": "waiting",
    "missionName": "Lorem Ipsum Mission Title",
    "rating": 4,
    "startingPoint": {
      "coordinates": [
        73,
        56
      ],
      "line1": "Address 1",
      "city": "City 1",
      "postalCode": "10000",
      "primary": true,
      "state": "state"
    },
    "destinationPoint": {
      "coordinates": [
        -3,
        69
      ],
      "line1": "Address 1",
      "city": "City 2",
      "postalCode": "20000",
      "primary": false,
      "state": "state"
    }
  },
  {
    "status": "waiting",
    "missionName": "Lorem Ipsum Mission Title",
    "rating": 4,
    "startingPoint": {
      "coordinates": [
        73,
        56
      ],
      "line1": "Address 1",
      "city": "City 1",
      "postalCode": "10000",
      "primary": true,
      "state": "state"
    },
    "destinationPoint": {
      "coordinates": [
        -3,
        69
      ],
      "line1": "Address 1",
      "city": "City 2",
      "postalCode": "20000",
      "primary": false,
      "state": "state"
    }
  },
  {
    "status": "waiting",
    "missionName": "Lorem Ipsum Mission Title",
    "rating": 4,
    "startingPoint": {
      "coordinates": [
        73,
        56
      ],
      "line1": "Address 1",
      "city": "City 1",
      "postalCode": "10000",
      "primary": true,
      "state": "state"
    },
    "destinationPoint": {
      "coordinates": [
        -3,
        69
      ],
      "line1": "Address 1",
      "city": "City 2",
      "postalCode": "20000",
      "primary": false,
      "state": "state"
    }
  },
  {
    "status": "waiting",
    "missionName": "Lorem Ipsum Mission Title",
    "rating": 4,
    "startingPoint": {
      "coordinates": [
        73,
        56
      ],
      "line1": "Address 1",
      "city": "City 1",
      "postalCode": "10000",
      "primary": true,
      "state": "state"
    },
    "destinationPoint": {
      "coordinates": [
        -3,
        69
      ],
      "line1": "Address 1",
      "city": "City 2",
      "postalCode": "20000",
      "primary": false,
      "state": "state"
    }
  },
  {
    "status": "waiting",
    "missionName": "Lorem Ipsum Mission Title",
    "rating": 4,
    "startingPoint": {
      "coordinates": [
        73,
        56
      ],
      "line1": "Address 1",
      "city": "City 1",
      "postalCode": "10000",
      "primary": true,
      "state": "state"
    },
    "destinationPoint": {
      "coordinates": [
        -3,
        69
      ],
      "line1": "Address 1",
      "city": "City 2",
      "postalCode": "20000",
      "primary": false,
      "state": "state"
    }
  },
  {
    "status": "waiting",
    "missionName": "Lorem Ipsum Mission Title",
    "rating": 4,
    "startingPoint": {
      "coordinates": [
        73,
        56
      ],
      "line1": "Address 1",
      "city": "City 1",
      "postalCode": "10000",
      "primary": true,
      "state": "state"
    },
    "destinationPoint": {
      "coordinates": [
        -3,
        69
      ],
      "line1": "Address 1",
      "city": "City 2",
      "postalCode": "20000",
      "primary": false,
      "state": "state"
    }
  },
  {
    "status": "waiting",
    "missionName": "Lorem Ipsum Mission Title",
    "rating": 4,
    "startingPoint": {
      "coordinates": [
        73,
        56
      ],
      "line1": "Address 1",
      "city": "City 1",
      "postalCode": "10000",
      "primary": true,
      "state": "state"
    },
    "destinationPoint": {
      "coordinates": [
        -3,
        69
      ],
      "line1": "Address 1",
      "city": "City 2",
      "postalCode": "20000",
      "primary": false,
      "state": "state"
    }
  },
  {
    "status": "waiting",
    "missionName": "Lorem Ipsum Mission Title",
    "rating": 4,
    "startingPoint": {
      "coordinates": [
        73,
        56
      ],
      "line1": "Address 1",
      "city": "City 1",
      "postalCode": "10000",
      "primary": true,
      "state": "state"
    },
    "destinationPoint": {
      "coordinates": [
        -3,
        69
      ],
      "line1": "Address 1",
      "city": "City 2",
      "postalCode": "20000",
      "primary": false,
      "state": "state"
    }
  },
  {
    "status": "waiting",
    "missionName": "Lorem Ipsum Mission Title",
    "rating": 4,
    "startingPoint": {
      "coordinates": [
        73,
        56
      ],
      "line1": "Address 1",
      "city": "City 1",
      "postalCode": "10000",
      "primary": true,
      "state": "state"
    },
    "destinationPoint": {
      "coordinates": [
        -3,
        69
      ],
      "line1": "Address 1",
      "city": "City 2",
      "postalCode": "20000",
      "primary": false,
      "state": "state"
    }
  },
  {
    "status": "waiting",
    "missionName": "Lorem Ipsum Mission Title",
    "rating": 4,
    "startingPoint": {
      "coordinates": [
        73,
        56
      ],
      "line1": "Address 1",
      "city": "City 1",
      "postalCode": "10000",
      "primary": true,
      "state": "state"
    },
    "destinationPoint": {
      "coordinates": [
        -3,
        69
      ],
      "line1": "Address 1",
      "city": "City 2",
      "postalCode": "20000",
      "primary": false,
      "state": "state"
    }
  },
  {
    "status": "waiting",
    "missionName": "Lorem Ipsum Mission Title",
    "rating": 4,
    "startingPoint": {
      "coordinates": [
        73,
        56
      ],
      "line1": "Address 1",
      "city": "City 1",
      "postalCode": "10000",
      "primary": true,
      "state": "state"
    },
    "destinationPoint": {
      "coordinates": [
        -3,
        69
      ],
      "line1": "Address 1",
      "city": "City 2",
      "postalCode": "20000",
      "primary": false,
      "state": "state"
    }
  },
  {
    "status": "waiting",
    "missionName": "Lorem Ipsum Mission Title",
    "rating": 4,
    "startingPoint": {
      "coordinates": [
        73,
        56
      ],
      "line1": "Address 1",
      "city": "City 1",
      "postalCode": "10000",
      "primary": true,
      "state": "state"
    },
    "destinationPoint": {
      "coordinates": [
        -3,
        69
      ],
      "line1": "Address 1",
      "city": "City 2",
      "postalCode": "20000",
      "primary": false,
      "state": "state"
    }
  },
  {
    "status": "completed",
    "missionName": "Lorem Ipsum Mission Title",
    "rating": 4,
    "startingPoint": {
      "coordinates": [
        73,
        56
      ],
      "line1": "Address 1",
      "city": "City 1",
      "postalCode": "10000",
      "primary": true,
      "state": "state"
    },
    "destinationPoint": {
      "coordinates": [
        -3,
        69
      ],
      "line1": "Address 1",
      "city": "City 2",
      "postalCode": "20000",
      "primary": false,
      "state": "state"
    },
    "startedAt": "2016-11-01T02:08:01",
    "completedAt": "2016-11-01T05:53:23"
  },
  {
    "status": "completed",
    "missionName": "Lorem Ipsum Mission Title",
    "rating": 4,
    "startingPoint": {
      "coordinates": [
        73,
        56
      ],
      "line1": "Address 1",
      "city": "City 1",
      "postalCode": "10000",
      "primary": true,
      "state": "state"
    },
    "destinationPoint": {
      "coordinates": [
        -3,
        69
      ],
      "line1": "Address 1",
      "city": "City 2",
      "postalCode": "20000",
      "primary": false,
      "state": "state"
    },
    "startedAt": "2016-11-01T02:08:01",
    "completedAt": "2016-11-01T05:53:23"
  },
  {
    "status": "completed",
    "missionName": "Lorem Ipsum Mission Title",
    "rating": 4,
    "startingPoint": {
      "coordinates": [
        73,
        56
      ],
      "line1": "Address 1",
      "city": "City 1",
      "postalCode": "10000",
      "primary": true,
      "state": "state"
    },
    "destinationPoint": {
      "coordinates": [
        -3,
        69
      ],
      "line1": "Address 1",
      "city": "City 2",
      "postalCode": "20000",
      "primary": false,
      "state": "state"
    },
    "startedAt": "2016-11-01T02:08:01",
    "completedAt": "2016-11-01T05:53:23"
  },
  {
    "status": "completed",
    "missionName": "Lorem Ipsum Mission Title",
    "rating": 4,
    "startingPoint": {
      "coordinates": [
        73,
        56
      ],
      "line1": "Address 1",
      "city": "City 1",
      "postalCode": "10000",
      "primary": true,
      "state": "state"
    },
    "destinationPoint": {
      "coordinates": [
        -3,
        69
      ],
      "line1": "Address 1",
      "city": "City 2",
      "postalCode": "20000",
      "primary": false,
      "state": "state"
    },
    "startedAt": "2016-11-01T02:08:01",
    "completedAt": "2016-11-01T05:53:23"
  },
  {
    "status": "completed",
    "missionName": "Lorem Ipsum Mission Title",
    "rating": 4,
    "startingPoint": {
      "coordinates": [
        73,
        56
      ],
      "line1": "Address 1",
      "city": "City 1",
      "postalCode": "10000",
      "primary": true,
      "state": "state"
    },
    "destinationPoint": {
      "coordinates": [
        -3,
        69
      ],
      "line1": "Address 1",
      "city": "City 2",
      "postalCode": "20000",
      "primary": false,
      "state": "state"
    },
    "startedAt": "2016-11-01T02:08:01",
    "completedAt": "2016-11-01T05:53:23"
  },
  {
    "status": "completed",
    "missionName": "Lorem Ipsum Mission Title",
    "rating": 4,
    "startingPoint": {
      "coordinates": [
        73,
        56
      ],
      "line1": "Address 1",
      "city": "City 1",
      "postalCode": "10000",
      "primary": true,
      "state": "state"
    },
    "destinationPoint": {
      "coordinates": [
        -3,
        69
      ],
      "line1": "Address 1",
      "city": "City 2",
      "postalCode": "20000",
      "primary": false,
      "state": "state"
    },
    "startedAt": "2016-11-01T02:08:01",
    "completedAt": "2016-11-01T05:53:23"
  },
  {
    "status": "completed",
    "missionName": "Lorem Ipsum Mission Title",
    "rating": 4,
    "startingPoint": {
      "coordinates": [
        73,
        56
      ],
      "line1": "Address 1",
      "city": "City 1",
      "postalCode": "10000",
      "primary": true,
      "state": "state"
    },
    "destinationPoint": {
      "coordinates": [
        -3,
        69
      ],
      "line1": "Address 1",
      "city": "City 2",
      "postalCode": "20000",
      "primary": false,
      "state": "state"
    },
    "startedAt": "2016-11-01T02:08:01",
    "completedAt": "2016-11-01T05:53:23"
  },
  {
    "status": "completed",
    "missionName": "Lorem Ipsum Mission Title",
    "rating": 4,
    "startingPoint": {
      "coordinates": [
        73,
        56
      ],
      "line1": "Address 1",
      "city": "City 1",
      "postalCode": "10000",
      "primary": true,
      "state": "state"
    },
    "destinationPoint": {
      "coordinates": [
        -3,
        69
      ],
      "line1": "Address 1",
      "city": "City 2",
      "postalCode": "20000",
      "primary": false,
      "state": "state"
    },
    "startedAt": "2016-11-01T02:08:01",
    "completedAt": "2016-11-01T05:53:23"
  },
  {
    "status": "completed",
    "missionName": "Lorem Ipsum Mission Title",
    "rating": 4,
    "startingPoint": {
      "coordinates": [
        73,
        56
      ],
      "line1": "Address 1",
      "city": "City 1",
      "postalCode": "10000",
      "primary": true,
      "state": "state"
    },
    "destinationPoint": {
      "coordinates": [
        -3,
        69
      ],
      "line1": "Address 1",
      "city": "City 2",
      "postalCode": "20000",
      "primary": false,
      "state": "state"
    },
    "startedAt": "2016-11-01T02:08:01",
    "completedAt": "2016-11-01T05:53:23"
  },
  {
    "status": "completed",
    "missionName": "Lorem Ipsum Mission Title",
    "rating": 4,
    "startingPoint": {
      "coordinates": [
        73,
        56
      ],
      "line1": "Address 1",
      "city": "City 1",
      "postalCode": "10000",
      "primary": true,
      "state": "state"
    },
    "destinationPoint": {
      "coordinates": [
        -3,
        69
      ],
      "line1": "Address 1",
      "city": "City 2",
      "postalCode": "20000",
      "primary": false,
      "state": "state"
    },
    "startedAt": "2016-11-01T02:08:01",
    "completedAt": "2016-11-01T05:53:23"
  },
  {
    "status": "completed",
    "missionName": "Lorem Ipsum Mission Title",
    "rating": 4,
    "startingPoint": {
      "coordinates": [
        73,
        56
      ],
      "line1": "Address 1",
      "city": "City 1",
      "postalCode": "10000",
      "primary": true,
      "state": "state"
    },
    "destinationPoint": {
      "coordinates": [
        -3,
        69
      ],
      "line1": "Address 1",
      "city": "City 2",
      "postalCode": "20000",
      "primary": false,
      "state": "state"
    },
    "startedAt": "2016-11-01T02:08:01",
    "completedAt": "2016-11-01T05:53:23"
  },
  {
    "status": "completed",
    "missionName": "Lorem Ipsum Mission Title",
    "rating": 4,
    "startingPoint": {
      "coordinates": [
        73,
        56
      ],
      "line1": "Address 1",
      "city": "City 1",
      "postalCode": "10000",
      "primary": true,
      "state": "state"
    },
    "destinationPoint": {
      "coordinates": [
        -3,
        69
      ],
      "line1": "Address 1",
      "city": "City 2",
      "postalCode": "20000",
      "primary": false,
      "state": "state"
    },
    "startedAt": "2016-11-01T02:08:01",
    "completedAt": "2016-11-01T05:53:23"
  },
  {
    "status": "completed",
    "missionName": "Lorem Ipsum Mission Title",
    "rating": 4,
    "startingPoint": {
      "coordinates": [
        73,
        56
      ],
      "line1": "Address 1",
      "city": "City 1",
      "postalCode": "10000",
      "primary": true,
      "state": "state"
    },
    "destinationPoint": {
      "coordinates": [
        -3,
        69
      ],
      "line1": "Address 1",
      "city": "City 2",
      "postalCode": "20000",
      "primary": false,
      "state": "state"
    },
    "startedAt": "2016-11-01T02:08:01",
    "completedAt": "2016-11-01T05:53:23"
  },
  {
    "status": "completed",
    "missionName": "Lorem Ipsum Mission Title",
    "rating": 4,
    "startingPoint": {
      "coordinates": [
        73,
        56
      ],
      "line1": "Address 1",
      "city": "City 1",
      "postalCode": "10000",
      "primary": true,
      "state": "state"
    },
    "destinationPoint": {
      "coordinates": [
        -3,
        69
      ],
      "line1": "Address 1",
      "city": "City 2",
      "postalCode": "20000",
      "primary": false,
      "state": "state"
    },
    "startedAt": "2016-11-01T02:08:01",
    "completedAt": "2016-11-01T05:53:23"
  },
  {
    "status": "completed",
    "missionName": "Lorem Ipsum Mission Title",
    "rating": 4,
    "startingPoint": {
      "coordinates": [
        73,
        56
      ],
      "line1": "Address 1",
      "city": "City 1",
      "postalCode": "10000",
      "primary": true,
      "state": "state"
    },
    "destinationPoint": {
      "coordinates": [
        -3,
        69
      ],
      "line1": "Address 1",
      "city": "City 2",
      "postalCode": "20000",
      "primary": false,
      "state": "state"
    },
    "startedAt": "2016-11-01T02:08:01",
    "completedAt": "2016-11-01T05:53:23"
  },
  {
    "status": "completed",
    "missionName": "Lorem Ipsum Mission Title",
    "rating": 4,
    "startingPoint": {
      "coordinates": [
        73,
        56
      ],
      "line1": "Address 1",
      "city": "City 1",
      "postalCode": "10000",
      "primary": true,
      "state": "state"
    },
    "destinationPoint": {
      "coordinates": [
        -3,
        69
      ],
      "line1": "Address 1",
      "city": "City 2",
      "postalCode": "20000",
      "primary": false,
      "state": "state"
    },
    "startedAt": "2016-11-01T02:08:01",
    "completedAt": "2016-11-01T05:53:23"
  },
  {
    "status": "completed",
    "missionName": "Lorem Ipsum Mission Title",
    "rating": 4,
    "startingPoint": {
      "coordinates": [
        73,
        56
      ],
      "line1": "Address 1",
      "city": "City 1",
      "postalCode": "10000",
      "primary": true,
      "state": "state"
    },
    "destinationPoint": {
      "coordinates": [
        -3,
        69
      ],
      "line1": "Address 1",
      "city": "City 2",
      "postalCode": "20000",
      "primary": false,
      "state": "state"
    },
    "startedAt": "2016-11-01T02:08:01",
    "completedAt": "2016-11-01T05:53:23"
  },
  {
    "status": "completed",
    "missionName": "Lorem Ipsum Mission Title",
    "rating": 4,
    "startingPoint": {
      "coordinates": [
        73,
        56
      ],
      "line1": "Address 1",
      "city": "City 1",
      "postalCode": "10000",
      "primary": true,
      "state": "state"
    },
    "destinationPoint": {
      "coordinates": [
        -3,
        69
      ],
      "line1": "Address 1",
      "city": "City 2",
      "postalCode": "20000",
      "primary": false,
      "state": "state"
    },
    "startedAt": "2016-11-01T02:08:01",
    "completedAt": "2016-11-01T05:53:23"
  },
  {
    "status": "completed",
    "missionName": "Lorem Ipsum Mission Title",
    "rating": 4,
    "startingPoint": {
      "coordinates": [
        73,
        56
      ],
      "line1": "Address 1",
      "city": "City 1",
      "postalCode": "10000",
      "primary": true,
      "state": "state"
    },
    "destinationPoint": {
      "coordinates": [
        -3,
        69
      ],
      "line1": "Address 1",
      "city": "City 2",
      "postalCode": "20000",
      "primary": false,
      "state": "state"
    },
    "startedAt": "2016-11-01T02:08:01",
    "completedAt": "2016-11-01T05:53:23"
  },
  {
    "status": "completed",
    "missionName": "Lorem Ipsum Mission Title",
    "rating": 4,
    "startingPoint": {
      "coordinates": [
        73,
        56
      ],
      "line1": "Address 1",
      "city": "City 1",
      "postalCode": "10000",
      "primary": true,
      "state": "state"
    },
    "destinationPoint": {
      "coordinates": [
        -3,
        69
      ],
      "line1": "Address 1",
      "city": "City 2",
      "postalCode": "20000",
      "primary": false,
      "state": "state"
    },
    "startedAt": "2016-11-01T02:08:01",
    "completedAt": "2016-11-01T05:53:23"
  },
  {
    "status": "completed",
    "missionName": "Lorem Ipsum Mission Title",
    "rating": 4,
    "startingPoint": {
      "coordinates": [
        73,
        56
      ],
      "line1": "Address 1",
      "city": "City 1",
      "postalCode": "10000",
      "primary": true,
      "state": "state"
    },
    "destinationPoint": {
      "coordinates": [
        -3,
        69
      ],
      "line1": "Address 1",
      "city": "City 2",
      "postalCode": "20000",
      "primary": false,
      "state": "state"
    },
    "startedAt": "2016-11-01T02:08:01",
    "completedAt": "2016-11-01T05:53:23"
  },
  {
    "status": "completed",
    "missionName": "Lorem Ipsum Mission Title",
    "rating": 4,
    "startingPoint": {
      "coordinates": [
        73,
        56
      ],
      "line1": "Address 1",
      "city": "City 1",
      "postalCode": "10000",
      "primary": true,
      "state": "state"
    },
    "destinationPoint": {
      "coordinates": [
        -3,
        69
      ],
      "line1": "Address 1",
      "city": "City 2",
      "postalCode": "20000",
      "primary": false,
      "state": "state"
    },
    "startedAt": "2016-11-01T02:08:01",
    "completedAt": "2016-11-01T05:53:23"
  },
  {
    "status": "completed",
    "missionName": "Lorem Ipsum Mission Title",
    "rating": 4,
    "startingPoint": {
      "coordinates": [
        73,
        56
      ],
      "line1": "Address 1",
      "city": "City 1",
      "postalCode": "10000",
      "primary": true,
      "state": "state"
    },
    "destinationPoint": {
      "coordinates": [
        -3,
        69
      ],
      "line1": "Address 1",
      "city": "City 2",
      "postalCode": "20000",
      "primary": false,
      "state": "state"
    },
    "startedAt": "2016-11-01T02:08:01",
    "completedAt": "2016-11-01T05:53:23"
  },
  {
    "status": "completed",
    "missionName": "Lorem Ipsum Mission Title",
    "rating": 4,
    "startingPoint": {
      "coordinates": [
        73,
        56
      ],
      "line1": "Address 1",
      "city": "City 1",
      "postalCode": "10000",
      "primary": true,
      "state": "state"
    },
    "destinationPoint": {
      "coordinates": [
        -3,
        69
      ],
      "line1": "Address 1",
      "city": "City 2",
      "postalCode": "20000",
      "primary": false,
      "state": "state"
    },
    "startedAt": "2016-11-01T02:08:01",
    "completedAt": "2016-11-01T05:53:23"
  },
  {
    "status": "completed",
    "missionName": "Lorem Ipsum Mission Title",
    "rating": 4,
    "startingPoint": {
      "coordinates": [
        73,
        56
      ],
      "line1": "Address 1",
      "city": "City 1",
      "postalCode": "10000",
      "primary": true,
      "state": "state"
    },
    "destinationPoint": {
      "coordinates": [
        -3,
        69
      ],
      "line1": "Address 1",
      "city": "City 2",
      "postalCode": "20000",
      "primary": false,
      "state": "state"
    },
    "startedAt": "2016-11-01T02:08:01",
    "completedAt": "2016-11-01T05:53:23"
  },
  {
    "status": "completed",
    "missionName": "Lorem Ipsum Mission Title",
    "rating": 4,
    "startingPoint": {
      "coordinates": [
        73,
        56
      ],
      "line1": "Address 1",
      "city": "City 1",
      "postalCode": "10000",
      "primary": true,
      "state": "state"
    },
    "destinationPoint": {
      "coordinates": [
        -3,
        69
      ],
      "line1": "Address 1",
      "city": "City 2",
      "postalCode": "20000",
      "primary": false,
      "state": "state"
    },
    "startedAt": "2016-11-01T02:08:01",
    "completedAt": "2016-11-01T05:53:23"
  },
  {
    "status": "completed",
    "missionName": "Lorem Ipsum Mission Title",
    "rating": 4,
    "startingPoint": {
      "coordinates": [
        73,
        56
      ],
      "line1": "Address 1",
      "city": "City 1",
      "postalCode": "10000",
      "primary": true,
      "state": "state"
    },
    "destinationPoint": {
      "coordinates": [
        -3,
        69
      ],
      "line1": "Address 1",
      "city": "City 2",
      "postalCode": "20000",
      "primary": false,
      "state": "state"
    },
    "startedAt": "2016-11-01T02:08:01",
    "completedAt": "2016-11-01T05:53:23"
  },
  {
    "status": "completed",
    "missionName": "Lorem Ipsum Mission Title",
    "rating": 4,
    "startingPoint": {
      "coordinates": [
        73,
        56
      ],
      "line1": "Address 1",
      "city": "City 1",
      "postalCode": "10000",
      "primary": true,
      "state": "state"
    },
    "destinationPoint": {
      "coordinates": [
        -3,
        69
      ],
      "line1": "Address 1",
      "city": "City 2",
      "postalCode": "20000",
      "primary": false,
      "state": "state"
    },
    "startedAt": "2016-11-01T02:08:01",
    "completedAt": "2016-11-01T05:53:23"
  },
  {
    "status": "completed",
    "missionName": "Lorem Ipsum Mission Title",
    "rating": 4,
    "startingPoint": {
      "coordinates": [
        73,
        56
      ],
      "line1": "Address 1",
      "city": "City 1",
      "postalCode": "10000",
      "primary": true,
      "state": "state"
    },
    "destinationPoint": {
      "coordinates": [
        -3,
        69
      ],
      "line1": "Address 1",
      "city": "City 2",
      "postalCode": "20000",
      "primary": false,
      "state": "state"
    },
    "startedAt": "2016-11-01T02:08:01",
    "completedAt": "2016-11-01T05:53:23"
  },
  {
    "status": "completed",
    "missionName": "Lorem Ipsum Mission Title",
    "rating": 4,
    "startingPoint": {
      "coordinates": [
        73,
        56
      ],
      "line1": "Address 1",
      "city": "City 1",
      "postalCode": "10000",
      "primary": true,
      "state": "state"
    },
    "destinationPoint": {
      "coordinates": [
        -3,
        69
      ],
      "line1": "Address 1",
      "city": "City 2",
      "postalCode": "20000",
      "primary": false,
      "state": "state"
    },
    "startedAt": "2016-11-01T02:08:01",
    "completedAt": "2016-11-01T05:53:23"
  },
  {
    "status": "waiting",
    "missionName": "Lorem Ipsum Mission Title",
    "rating": 4,
    "startingPoint": {
      "coordinates": [
        73,
        56
      ],
      "line1": "Address 1",
      "city": "City 1",
      "postalCode": "10000",
      "primary": true,
      "state": "state"
    },
    "destinationPoint": {
      "coordinates": [
        -3,
        69
      ],
      "line1": "Address 1",
      "city": "City 2",
      "postalCode": "20000",
      "primary": false,
      "state": "state"
    }
  },
  {
    "status": "waiting",
    "missionName": "Lorem Ipsum Mission Title",
    "rating": 4,
    "startingPoint": {
      "coordinates": [
        73,
        56
      ],
      "line1": "Address 1",
      "city": "City 1",
      "postalCode": "10000",
      "primary": true,
      "state": "state"
    },
    "destinationPoint": {
      "coordinates": [
        -3,
        69
      ],
      "line1": "Address 1",
      "city": "City 2",
      "postalCode": "20000",
      "primary": false,
      "state": "state"
    }
  },
  {
    "status": "waiting",
    "missionName": "Lorem Ipsum Mission Title",
    "rating": 4,
    "startingPoint": {
      "coordinates": [
        73,
        56
      ],
      "line1": "Address 1",
      "city": "City 1",
      "postalCode": "10000",
      "primary": true,
      "state": "state"
    },
    "destinationPoint": {
      "coordinates": [
        -3,
        69
      ],
      "line1": "Address 1",
      "city": "City 2",
      "postalCode": "20000",
      "primary": false,
      "state": "state"
    }
  },
  {
    "status": "waiting",
    "missionName": "Lorem Ipsum Mission Title",
    "rating": 4,
    "startingPoint": {
      "coordinates": [
        73,
        56
      ],
      "line1": "Address 1",
      "city": "City 1",
      "postalCode": "10000",
      "primary": true,
      "state": "state"
    },
    "destinationPoint": {
      "coordinates": [
        -3,
        69
      ],
      "line1": "Address 1",
      "city": "City 2",
      "postalCode": "20000",
      "primary": false,
      "state": "state"
    }
  },
  {
    "status": "waiting",
    "missionName": "Lorem Ipsum Mission Title",
    "rating": 4,
    "startingPoint": {
      "coordinates": [
        73,
        56
      ],
      "line1": "Address 1",
      "city": "City 1",
      "postalCode": "10000",
      "primary": true,
      "state": "state"
    },
    "destinationPoint": {
      "coordinates": [
        -3,
        69
      ],
      "line1": "Address 1",
      "city": "City 2",
      "postalCode": "20000",
      "primary": false,
      "state": "state"
    }
  },
  {
    "status": "waiting",
    "missionName": "Lorem Ipsum Mission Title",
    "rating": 4,
    "startingPoint": {
      "coordinates": [
        73,
        56
      ],
      "line1": "Address 1",
      "city": "City 1",
      "postalCode": "10000",
      "primary": true,
      "state": "state"
    },
    "destinationPoint": {
      "coordinates": [
        -3,
        69
      ],
      "line1": "Address 1",
      "city": "City 2",
      "postalCode": "20000",
      "primary": false,
      "state": "state"
    }
  },
  {
    "status": "waiting",
    "missionName": "Lorem Ipsum Mission Title",
    "rating": 4,
    "startingPoint": {
      "coordinates": [
        73,
        56
      ],
      "line1": "Address 1",
      "city": "City 1",
      "postalCode": "10000",
      "primary": true,
      "state": "state"
    },
    "destinationPoint": {
      "coordinates": [
        -3,
        69
      ],
      "line1": "Address 1",
      "city": "City 2",
      "postalCode": "20000",
      "primary": false,
      "state": "state"
    }
  },
  {
    "status": "waiting",
    "missionName": "Lorem Ipsum Mission Title",
    "rating": 4,
    "startingPoint": {
      "coordinates": [
        73,
        56
      ],
      "line1": "Address 1",
      "city": "City 1",
      "postalCode": "10000",
      "primary": true,
      "state": "state"
    },
    "destinationPoint": {
      "coordinates": [
        -3,
        69
      ],
      "line1": "Address 1",
      "city": "City 2",
      "postalCode": "20000",
      "primary": false,
      "state": "state"
    }
  },
  {
    "status": "waiting",
    "missionName": "Lorem Ipsum Mission Title",
    "rating": 4,
    "startingPoint": {
      "coordinates": [
        73,
        56
      ],
      "line1": "Address 1",
      "city": "City 1",
      "postalCode": "10000",
      "primary": true,
      "state": "state"
    },
    "destinationPoint": {
      "coordinates": [
        -3,
        69
      ],
      "line1": "Address 1",
      "city": "City 2",
      "postalCode": "20000",
      "primary": false,
      "state": "state"
    }
  },
  {
    "status": "waiting",
    "missionName": "Lorem Ipsum Mission Title",
    "rating": 4,
    "startingPoint": {
      "coordinates": [
        73,
        56
      ],
      "line1": "Address 1",
      "city": "City 1",
      "postalCode": "10000",
      "primary": true,
      "state": "state"
    },
    "destinationPoint": {
      "coordinates": [
        -3,
        69
      ],
      "line1": "Address 1",
      "city": "City 2",
      "postalCode": "20000",
      "primary": false,
      "state": "state"
    }
  },
  {
    "status": "waiting",
    "missionName": "Lorem Ipsum Mission Title",
    "rating": 4,
    "startingPoint": {
      "coordinates": [
        73,
        56
      ],
      "line1": "Address 1",
      "city": "City 1",
      "postalCode": "10000",
      "primary": true,
      "state": "state"
    },
    "destinationPoint": {
      "coordinates": [
        -3,
        69
      ],
      "line1": "Address 1",
      "city": "City 2",
      "postalCode": "20000",
      "primary": false,
      "state": "state"
    }
  },
  {
    "status": "waiting",
    "missionName": "Lorem Ipsum Mission Title",
    "rating": 4,
    "startingPoint": {
      "coordinates": [
        73,
        56
      ],
      "line1": "Address 1",
      "city": "City 1",
      "postalCode": "10000",
      "primary": true,
      "state": "state"
    },
    "destinationPoint": {
      "coordinates": [
        -3,
        69
      ],
      "line1": "Address 1",
      "city": "City 2",
      "postalCode": "20000",
      "primary": false,
      "state": "state"
    }
  },
  {
    "status": "waiting",
    "missionName": "Lorem Ipsum Mission Title",
    "rating": 4,
    "startingPoint": {
      "coordinates": [
        73,
        56
      ],
      "line1": "Address 1",
      "city": "City 1",
      "postalCode": "10000",
      "primary": true,
      "state": "state"
    },
    "destinationPoint": {
      "coordinates": [
        -3,
        69
      ],
      "line1": "Address 1",
      "city": "City 2",
      "postalCode": "20000",
      "primary": false,
      "state": "state"
    }
  },
  {
    "status": "waiting",
    "missionName": "Lorem Ipsum Mission Title",
    "rating": 4,
    "startingPoint": {
      "coordinates": [
        73,
        56
      ],
      "line1": "Address 1",
      "city": "City 1",
      "postalCode": "10000",
      "primary": true,
      "state": "state"
    },
    "destinationPoint": {
      "coordinates": [
        -3,
        69
      ],
      "line1": "Address 1",
      "city": "City 2",
      "postalCode": "20000",
      "primary": false,
      "state": "state"
    }
  },
  {
    "status": "waiting",
    "missionName": "Lorem Ipsum Mission Title",
    "rating": 4,
    "startingPoint": {
      "coordinates": [
        73,
        56
      ],
      "line1": "Address 1",
      "city": "City 1",
      "postalCode": "10000",
      "primary": true,
      "state": "state"
    },
    "destinationPoint": {
      "coordinates": [
        -3,
        69
      ],
      "line1": "Address 1",
      "city": "City 2",
      "postalCode": "20000",
      "primary": false,
      "state": "state"
    }
  },
  {
    "status": "waiting",
    "missionName": "Lorem Ipsum Mission Title",
    "rating": 4,
    "startingPoint": {
      "coordinates": [
        73,
        56
      ],
      "line1": "Address 1",
      "city": "City 1",
      "postalCode": "10000",
      "primary": true,
      "state": "state"
    },
    "destinationPoint": {
      "coordinates": [
        -3,
        69
      ],
      "line1": "Address 1",
      "city": "City 2",
      "postalCode": "20000",
      "primary": false,
      "state": "state"
    }
  },
  {
    "status": "waiting",
    "missionName": "Lorem Ipsum Mission Title",
    "rating": 4,
    "startingPoint": {
      "coordinates": [
        73,
        56
      ],
      "line1": "Address 1",
      "city": "City 1",
      "postalCode": "10000",
      "primary": true,
      "state": "state"
    },
    "destinationPoint": {
      "coordinates": [
        -3,
        69
      ],
      "line1": "Address 1",
      "city": "City 2",
      "postalCode": "20000",
      "primary": false,
      "state": "state"
    }
  },
  {
    "status": "waiting",
    "missionName": "Lorem Ipsum Mission Title",
    "rating": 4,
    "startingPoint": {
      "coordinates": [
        73,
        56
      ],
      "line1": "Address 1",
      "city": "City 1",
      "postalCode": "10000",
      "primary": true,
      "state": "state"
    },
    "destinationPoint": {
      "coordinates": [
        -3,
        69
      ],
      "line1": "Address 1",
      "city": "City 2",
      "postalCode": "20000",
      "primary": false,
      "state": "state"
    }
  },
  {
    "status": "waiting",
    "missionName": "Lorem Ipsum Mission Title",
    "rating": 4,
    "startingPoint": {
      "coordinates": [
        73,
        56
      ],
      "line1": "Address 1",
      "city": "City 1",
      "postalCode": "10000",
      "primary": true,
      "state": "state"
    },
    "destinationPoint": {
      "coordinates": [
        -3,
        69
      ],
      "line1": "Address 1",
      "city": "City 2",
      "postalCode": "20000",
      "primary": false,
      "state": "state"
    }
  },
  {
    "status": "waiting",
    "missionName": "Lorem Ipsum Mission Title",
    "rating": 4,
    "startingPoint": {
      "coordinates": [
        73,
        56
      ],
      "line1": "Address 1",
      "city": "City 1",
      "postalCode": "10000",
      "primary": true,
      "state": "state"
    },
    "destinationPoint": {
      "coordinates": [
        -3,
        69
      ],
      "line1": "Address 1",
      "city": "City 2",
      "postalCode": "20000",
      "primary": false,
      "state": "state"
    }
  },
  {
    "status": "waiting",
    "missionName": "Lorem Ipsum Mission Title",
    "rating": 4,
    "startingPoint": {
      "coordinates": [
        73,
        56
      ],
      "line1": "Address 1",
      "city": "City 1",
      "postalCode": "10000",
      "primary": true,
      "state": "state"
    },
    "destinationPoint": {
      "coordinates": [
        -3,
        69
      ],
      "line1": "Address 1",
      "city": "City 2",
      "postalCode": "20000",
      "primary": false,
      "state": "state"
    }
  },
  {
    "status": "waiting",
    "missionName": "Lorem Ipsum Mission Title",
    "rating": 4,
    "startingPoint": {
      "coordinates": [
        73,
        56
      ],
      "line1": "Address 1",
      "city": "City 1",
      "postalCode": "10000",
      "primary": true,
      "state": "state"
    },
    "destinationPoint": {
      "coordinates": [
        -3,
        69
      ],
      "line1": "Address 1",
      "city": "City 2",
      "postalCode": "20000",
      "primary": false,
      "state": "state"
    }
  },
  {
    "status": "waiting",
    "missionName": "Lorem Ipsum Mission Title",
    "rating": 4,
    "startingPoint": {
      "coordinates": [
        73,
        56
      ],
      "line1": "Address 1",
      "city": "City 1",
      "postalCode": "10000",
      "primary": true,
      "state": "state"
    },
    "destinationPoint": {
      "coordinates": [
        -3,
        69
      ],
      "line1": "Address 1",
      "city": "City 2",
      "postalCode": "20000",
      "primary": false,
      "state": "state"
    }
  },
  {
    "status": "waiting",
    "missionName": "Lorem Ipsum Mission Title",
    "rating": 4,
    "startingPoint": {
      "coordinates": [
        73,
        56
      ],
      "line1": "Address 1",
      "city": "City 1",
      "postalCode": "10000",
      "primary": true,
      "state": "state"
    },
    "destinationPoint": {
      "coordinates": [
        -3,
        69
      ],
      "line1": "Address 1",
      "city": "City 2",
      "postalCode": "20000",
      "primary": false,
      "state": "state"
    }
  },
  {
    "status": "waiting",
    "missionName": "Lorem Ipsum Mission Title",
    "rating": 4,
    "startingPoint": {
      "coordinates": [
        73,
        56
      ],
      "line1": "Address 1",
      "city": "City 1",
      "postalCode": "10000",
      "primary": true,
      "state": "state"
    },
    "destinationPoint": {
      "coordinates": [
        -3,
        69
      ],
      "line1": "Address 1",
      "city": "City 2",
      "postalCode": "20000",
      "primary": false,
      "state": "state"
    }
  },
  {
    "status": "waiting",
    "missionName": "Lorem Ipsum Mission Title",
    "rating": 4,
    "startingPoint": {
      "coordinates": [
        73,
        56
      ],
      "line1": "Address 1",
      "city": "City 1",
      "postalCode": "10000",
      "primary": true,
      "state": "state"
    },
    "destinationPoint": {
      "coordinates": [
        -3,
        69
      ],
      "line1": "Address 1",
      "city": "City 2",
      "postalCode": "20000",
      "primary": false,
      "state": "state"
    }
  },
  {
    "status": "waiting",
    "missionName": "Lorem Ipsum Mission Title",
    "rating": 4,
    "startingPoint": {
      "coordinates": [
        73,
        56
      ],
      "line1": "Address 1",
      "city": "City 1",
      "postalCode": "10000",
      "primary": true,
      "state": "state"
    },
    "destinationPoint": {
      "coordinates": [
        -3,
        69
      ],
      "line1": "Address 1",
      "city": "City 2",
      "postalCode": "20000",
      "primary": false,
      "state": "state"
    }
  },
  {
    "status": "waiting",
    "missionName": "Lorem Ipsum Mission Title",
    "rating": 4,
    "startingPoint": {
      "coordinates": [
        73,
        56
      ],
      "line1": "Address 1",
      "city": "City 1",
      "postalCode": "10000",
      "primary": true,
      "state": "state"
    },
    "destinationPoint": {
      "coordinates": [
        -3,
        69
      ],
      "line1": "Address 1",
      "city": "City 2",
      "postalCode": "20000",
      "primary": false,
      "state": "state"
    }
  },
  {
    "status": "waiting",
    "missionName": "Lorem Ipsum Mission Title",
    "rating": 4,
    "startingPoint": {
      "coordinates": [
        73,
        56
      ],
      "line1": "Address 1",
      "city": "City 1",
      "postalCode": "10000",
      "primary": true,
      "state": "state"
    },
    "destinationPoint": {
      "coordinates": [
        -3,
        69
      ],
      "line1": "Address 1",
      "city": "City 2",
      "postalCode": "20000",
      "primary": false,
      "state": "state"
    }
  },
  {
    "status": "waiting",
    "missionName": "Lorem Ipsum Mission Title",
    "rating": 4,
    "startingPoint": {
      "coordinates": [
        73,
        56
      ],
      "line1": "Address 1",
      "city": "City 1",
      "postalCode": "10000",
      "primary": true,
      "state": "state"
    },
    "destinationPoint": {
      "coordinates": [
        -3,
        69
      ],
      "line1": "Address 1",
      "city": "City 2",
      "postalCode": "20000",
      "primary": false,
      "state": "state"
    }
  },
  {
    "status": "waiting",
    "missionName": "Lorem Ipsum Mission Title",
    "rating": 4,
    "startingPoint": {
      "coordinates": [
        73,
        56
      ],
      "line1": "Address 1",
      "city": "City 1",
      "postalCode": "10000",
      "primary": true,
      "state": "state"
    },
    "destinationPoint": {
      "coordinates": [
        -3,
        69
      ],
      "line1": "Address 1",
      "city": "City 2",
      "postalCode": "20000",
      "primary": false,
      "state": "state"
    }
  },
  {
    "status": "waiting",
    "missionName": "Lorem Ipsum Mission Title",
    "rating": 4,
    "startingPoint": {
      "coordinates": [
        73,
        56
      ],
      "line1": "Address 1",
      "city": "City 1",
      "postalCode": "10000",
      "primary": true,
      "state": "state"
    },
    "destinationPoint": {
      "coordinates": [
        -3,
        69
      ],
      "line1": "Address 1",
      "city": "City 2",
      "postalCode": "20000",
      "primary": false,
      "state": "state"
    }
  },
  {
    "status": "waiting",
    "missionName": "Lorem Ipsum Mission Title",
    "rating": 4,
    "startingPoint": {
      "coordinates": [
        73,
        56
      ],
      "line1": "Address 1",
      "city": "City 1",
      "postalCode": "10000",
      "primary": true,
      "state": "state"
    },
    "destinationPoint": {
      "coordinates": [
        -3,
        69
      ],
      "line1": "Address 1",
      "city": "City 2",
      "postalCode": "20000",
      "primary": false,
      "state": "state"
    }
  },
  {
    "status": "waiting",
    "missionName": "Lorem Ipsum Mission Title",
    "rating": 4,
    "startingPoint": {
      "coordinates": [
        73,
        56
      ],
      "line1": "Address 1",
      "city": "City 1",
      "postalCode": "10000",
      "primary": true,
      "state": "state"
    },
    "destinationPoint": {
      "coordinates": [
        -3,
        69
      ],
      "line1": "Address 1",
      "city": "City 2",
      "postalCode": "20000",
      "primary": false,
      "state": "state"
    }
  },
  {
    "status": "waiting",
    "missionName": "Lorem Ipsum Mission Title",
    "rating": 4,
    "startingPoint": {
      "coordinates": [
        73,
        56
      ],
      "line1": "Address 1",
      "city": "City 1",
      "postalCode": "10000",
      "primary": true,
      "state": "state"
    },
    "destinationPoint": {
      "coordinates": [
        -3,
        69
      ],
      "line1": "Address 1",
      "city": "City 2",
      "postalCode": "20000",
      "primary": false,
      "state": "state"
    }
  },
  {
    "status": "waiting",
    "missionName": "Lorem Ipsum Mission Title",
    "rating": 4,
    "startingPoint": {
      "coordinates": [
        73,
        56
      ],
      "line1": "Address 1",
      "city": "City 1",
      "postalCode": "10000",
      "primary": true,
      "state": "state"
    },
    "destinationPoint": {
      "coordinates": [
        -3,
        69
      ],
      "line1": "Address 1",
      "city": "City 2",
      "postalCode": "20000",
      "primary": false,
      "state": "state"
    }
  },
  {
    "status": "completed",
    "missionName": "Lorem Ipsum Mission Title",
    "rating": 4,
    "startingPoint": {
      "coordinates": [
        73,
        56
      ],
      "line1": "Address 1",
      "city": "City 1",
      "postalCode": "10000",
      "primary": true,
      "state": "state"
    },
    "destinationPoint": {
      "coordinates": [
        -3,
        69
      ],
      "line1": "Address 1",
      "city": "City 2",
      "postalCode": "20000",
      "primary": false,
      "state": "state"
    },
    "startedAt": "2016-11-01T02:08:01",
    "completedAt": "2016-11-01T05:53:23"
  },
  {
    "status": "completed",
    "missionName": "Lorem Ipsum Mission Title",
    "rating": 4,
    "startingPoint": {
      "coordinates": [
        73,
        56
      ],
      "line1": "Address 1",
      "city": "City 1",
      "postalCode": "10000",
      "primary": true,
      "state": "state"
    },
    "destinationPoint": {
      "coordinates": [
        -3,
        69
      ],
      "line1": "Address 1",
      "city": "City 2",
      "postalCode": "20000",
      "primary": false,
      "state": "state"
    },
    "startedAt": "2016-11-01T02:08:01",
    "completedAt": "2016-11-01T05:53:23"
  },
  {
    "status": "completed",
    "missionName": "Lorem Ipsum Mission Title",
    "rating": 4,
    "startingPoint": {
      "coordinates": [
        73,
        56
      ],
      "line1": "Address 1",
      "city": "City 1",
      "postalCode": "10000",
      "primary": true,
      "state": "state"
    },
    "destinationPoint": {
      "coordinates": [
        -3,
        69
      ],
      "line1": "Address 1",
      "city": "City 2",
      "postalCode": "20000",
      "primary": false,
      "state": "state"
    },
    "startedAt": "2016-11-01T02:08:01",
    "completedAt": "2016-11-01T05:53:23"
  },
  {
    "status": "completed",
    "missionName": "Lorem Ipsum Mission Title",
    "rating": 4,
    "startingPoint": {
      "coordinates": [
        73,
        56
      ],
      "line1": "Address 1",
      "city": "City 1",
      "postalCode": "10000",
      "primary": true,
      "state": "state"
    },
    "destinationPoint": {
      "coordinates": [
        -3,
        69
      ],
      "line1": "Address 1",
      "city": "City 2",
      "postalCode": "20000",
      "primary": false,
      "state": "state"
    },
    "startedAt": "2016-11-01T02:08:01",
    "completedAt": "2016-11-01T05:53:23"
  },
  {
    "status": "completed",
    "missionName": "Lorem Ipsum Mission Title",
    "rating": 4,
    "startingPoint": {
      "coordinates": [
        73,
        56
      ],
      "line1": "Address 1",
      "city": "City 1",
      "postalCode": "10000",
      "primary": true,
      "state": "state"
    },
    "destinationPoint": {
      "coordinates": [
        -3,
        69
      ],
      "line1": "Address 1",
      "city": "City 2",
      "postalCode": "20000",
      "primary": false,
      "state": "state"
    },
    "startedAt": "2016-11-01T02:08:01",
    "completedAt": "2016-11-01T05:53:23"
  },
  {
    "status": "completed",
    "missionName": "Lorem Ipsum Mission Title",
    "rating": 4,
    "startingPoint": {
      "coordinates": [
        73,
        56
      ],
      "line1": "Address 1",
      "city": "City 1",
      "postalCode": "10000",
      "primary": true,
      "state": "state"
    },
    "destinationPoint": {
      "coordinates": [
        -3,
        69
      ],
      "line1": "Address 1",
      "city": "City 2",
      "postalCode": "20000",
      "primary": false,
      "state": "state"
    },
    "startedAt": "2016-11-01T02:08:01",
    "completedAt": "2016-11-01T05:53:23"
  },
  {
    "status": "completed",
    "missionName": "Lorem Ipsum Mission Title",
    "rating": 4,
    "startingPoint": {
      "coordinates": [
        73,
        56
      ],
      "line1": "Address 1",
      "city": "City 1",
      "postalCode": "10000",
      "primary": true,
      "state": "state"
    },
    "destinationPoint": {
      "coordinates": [
        -3,
        69
      ],
      "line1": "Address 1",
      "city": "City 2",
      "postalCode": "20000",
      "primary": false,
      "state": "state"
    },
    "startedAt": "2016-11-01T02:08:01",
    "completedAt": "2016-11-01T05:53:23"
  },
  {
    "status": "completed",
    "missionName": "Lorem Ipsum Mission Title",
    "rating": 4,
    "startingPoint": {
      "coordinates": [
        73,
        56
      ],
      "line1": "Address 1",
      "city": "City 1",
      "postalCode": "10000",
      "primary": true,
      "state": "state"
    },
    "destinationPoint": {
      "coordinates": [
        -3,
        69
      ],
      "line1": "Address 1",
      "city": "City 2",
      "postalCode": "20000",
      "primary": false,
      "state": "state"
    },
    "startedAt": "2016-11-01T02:08:01",
    "completedAt": "2016-11-01T05:53:23"
  },
  {
    "status": "completed",
    "missionName": "Lorem Ipsum Mission Title",
    "rating": 4,
    "startingPoint": {
      "coordinates": [
        73,
        56
      ],
      "line1": "Address 1",
      "city": "City 1",
      "postalCode": "10000",
      "primary": true,
      "state": "state"
    },
    "destinationPoint": {
      "coordinates": [
        -3,
        69
      ],
      "line1": "Address 1",
      "city": "City 2",
      "postalCode": "20000",
      "primary": false,
      "state": "state"
    },
    "startedAt": "2016-11-01T02:08:01",
    "completedAt": "2016-11-01T05:53:23"
  },
  {
    "status": "completed",
    "missionName": "Lorem Ipsum Mission Title",
    "rating": 4,
    "startingPoint": {
      "coordinates": [
        73,
        56
      ],
      "line1": "Address 1",
      "city": "City 1",
      "postalCode": "10000",
      "primary": true,
      "state": "state"
    },
    "destinationPoint": {
      "coordinates": [
        -3,
        69
      ],
      "line1": "Address 1",
      "city": "City 2",
      "postalCode": "20000",
      "primary": false,
      "state": "state"
    },
    "startedAt": "2016-11-01T02:08:01",
    "completedAt": "2016-11-01T05:53:23"
  },
  {
    "status": "completed",
    "missionName": "Lorem Ipsum Mission Title",
    "rating": 4,
    "startingPoint": {
      "coordinates": [
        73,
        56
      ],
      "line1": "Address 1",
      "city": "City 1",
      "postalCode": "10000",
      "primary": true,
      "state": "state"
    },
    "destinationPoint": {
      "coordinates": [
        -3,
        69
      ],
      "line1": "Address 1",
      "city": "City 2",
      "postalCode": "20000",
      "primary": false,
      "state": "state"
    },
    "startedAt": "2016-11-01T02:08:01",
    "completedAt": "2016-11-01T05:53:23"
  },
  {
    "status": "completed",
    "missionName": "Lorem Ipsum Mission Title",
    "rating": 4,
    "startingPoint": {
      "coordinates": [
        73,
        56
      ],
      "line1": "Address 1",
      "city": "City 1",
      "postalCode": "10000",
      "primary": true,
      "state": "state"
    },
    "destinationPoint": {
      "coordinates": [
        -3,
        69
      ],
      "line1": "Address 1",
      "city": "City 2",
      "postalCode": "20000",
      "primary": false,
      "state": "state"
    },
    "startedAt": "2016-11-01T02:08:01",
    "completedAt": "2016-11-01T05:53:23"
  },
  {
    "status": "completed",
    "missionName": "Lorem Ipsum Mission Title",
    "rating": 4,
    "startingPoint": {
      "coordinates": [
        73,
        56
      ],
      "line1": "Address 1",
      "city": "City 1",
      "postalCode": "10000",
      "primary": true,
      "state": "state"
    },
    "destinationPoint": {
      "coordinates": [
        -3,
        69
      ],
      "line1": "Address 1",
      "city": "City 2",
      "postalCode": "20000",
      "primary": false,
      "state": "state"
    },
    "startedAt": "2016-11-01T02:08:01",
    "completedAt": "2016-11-01T05:53:23"
  },
  {
    "status": "completed",
    "missionName": "Lorem Ipsum Mission Title",
    "rating": 4,
    "startingPoint": {
      "coordinates": [
        73,
        56
      ],
      "line1": "Address 1",
      "city": "City 1",
      "postalCode": "10000",
      "primary": true,
      "state": "state"
    },
    "destinationPoint": {
      "coordinates": [
        -3,
        69
      ],
      "line1": "Address 1",
      "city": "City 2",
      "postalCode": "20000",
      "primary": false,
      "state": "state"
    },
    "startedAt": "2016-11-01T02:08:01",
    "completedAt": "2016-11-01T05:53:23"
  },
  {
    "status": "completed",
    "missionName": "Lorem Ipsum Mission Title",
    "rating": 4,
    "startingPoint": {
      "coordinates": [
        73,
        56
      ],
      "line1": "Address 1",
      "city": "City 1",
      "postalCode": "10000",
      "primary": true,
      "state": "state"
    },
    "destinationPoint": {
      "coordinates": [
        -3,
        69
      ],
      "line1": "Address 1",
      "city": "City 2",
      "postalCode": "20000",
      "primary": false,
      "state": "state"
    },
    "startedAt": "2016-11-01T02:08:01",
    "completedAt": "2016-11-01T05:53:23"
  },
  {
    "status": "completed",
    "missionName": "Lorem Ipsum Mission Title",
    "rating": 4,
    "startingPoint": {
      "coordinates": [
        73,
        56
      ],
      "line1": "Address 1",
      "city": "City 1",
      "postalCode": "10000",
      "primary": true,
      "state": "state"
    },
    "destinationPoint": {
      "coordinates": [
        -3,
        69
      ],
      "line1": "Address 1",
      "city": "City 2",
      "postalCode": "20000",
      "primary": false,
      "state": "state"
    },
    "startedAt": "2016-11-01T02:08:01",
    "completedAt": "2016-11-01T05:53:23"
  },
  {
    "status": "completed",
    "missionName": "Lorem Ipsum Mission Title",
    "rating": 4,
    "startingPoint": {
      "coordinates": [
        73,
        56
      ],
      "line1": "Address 1",
      "city": "City 1",
      "postalCode": "10000",
      "primary": true,
      "state": "state"
    },
    "destinationPoint": {
      "coordinates": [
        -3,
        69
      ],
      "line1": "Address 1",
      "city": "City 2",
      "postalCode": "20000",
      "primary": false,
      "state": "state"
    },
    "startedAt": "2016-11-01T02:08:01",
    "completedAt": "2016-11-01T05:53:23"
  },
  {
    "status": "completed",
    "missionName": "Lorem Ipsum Mission Title",
    "rating": 4,
    "startingPoint": {
      "coordinates": [
        73,
        56
      ],
      "line1": "Address 1",
      "city": "City 1",
      "postalCode": "10000",
      "primary": true,
      "state": "state"
    },
    "destinationPoint": {
      "coordinates": [
        -3,
        69
      ],
      "line1": "Address 1",
      "city": "City 2",
      "postalCode": "20000",
      "primary": false,
      "state": "state"
    },
    "startedAt": "2016-11-01T02:08:01",
    "completedAt": "2016-11-01T05:53:23"
  },
  {
    "status": "completed",
    "missionName": "Lorem Ipsum Mission Title",
    "rating": 4,
    "startingPoint": {
      "coordinates": [
        73,
        56
      ],
      "line1": "Address 1",
      "city": "City 1",
      "postalCode": "10000",
      "primary": true,
      "state": "state"
    },
    "destinationPoint": {
      "coordinates": [
        -3,
        69
      ],
      "line1": "Address 1",
      "city": "City 2",
      "postalCode": "20000",
      "primary": false,
      "state": "state"
    },
    "startedAt": "2016-11-01T02:08:01",
    "completedAt": "2016-11-01T05:53:23"
  },
  {
    "status": "completed",
    "missionName": "Lorem Ipsum Mission Title",
    "rating": 4,
    "startingPoint": {
      "coordinates": [
        73,
        56
      ],
      "line1": "Address 1",
      "city": "City 1",
      "postalCode": "10000",
      "primary": true,
      "state": "state"
    },
    "destinationPoint": {
      "coordinates": [
        -3,
        69
      ],
      "line1": "Address 1",
      "city": "City 2",
      "postalCode": "20000",
      "primary": false,
      "state": "state"
    },
    "startedAt": "2016-11-01T02:08:01",
    "completedAt": "2016-11-01T05:53:23"
  },
  {
    "status": "completed",
    "missionName": "Lorem Ipsum Mission Title",
    "rating": 4,
    "startingPoint": {
      "coordinates": [
        73,
        56
      ],
      "line1": "Address 1",
      "city": "City 1",
      "postalCode": "10000",
      "primary": true,
      "state": "state"
    },
    "destinationPoint": {
      "coordinates": [
        -3,
        69
      ],
      "line1": "Address 1",
      "city": "City 2",
      "postalCode": "20000",
      "primary": false,
      "state": "state"
    },
    "startedAt": "2016-11-01T02:08:01",
    "completedAt": "2016-11-01T05:53:23"
  },
  {
    "status": "completed",
    "missionName": "Lorem Ipsum Mission Title",
    "rating": 4,
    "startingPoint": {
      "coordinates": [
        73,
        56
      ],
      "line1": "Address 1",
      "city": "City 1",
      "postalCode": "10000",
      "primary": true,
      "state": "state"
    },
    "destinationPoint": {
      "coordinates": [
        -3,
        69
      ],
      "line1": "Address 1",
      "city": "City 2",
      "postalCode": "20000",
      "primary": false,
      "state": "state"
    },
    "startedAt": "2016-11-01T02:08:01",
    "completedAt": "2016-11-01T05:53:23"
  },
  {
    "status": "completed",
    "missionName": "Lorem Ipsum Mission Title",
    "rating": 4,
    "startingPoint": {
      "coordinates": [
        73,
        56
      ],
      "line1": "Address 1",
      "city": "City 1",
      "postalCode": "10000",
      "primary": true,
      "state": "state"
    },
    "destinationPoint": {
      "coordinates": [
        -3,
        69
      ],
      "line1": "Address 1",
      "city": "City 2",
      "postalCode": "20000",
      "primary": false,
      "state": "state"
    },
    "startedAt": "2016-11-01T02:08:01",
    "completedAt": "2016-11-01T05:53:23"
  },
  {
    "status": "completed",
    "missionName": "Lorem Ipsum Mission Title",
    "rating": 4,
    "startingPoint": {
      "coordinates": [
        73,
        56
      ],
      "line1": "Address 1",
      "city": "City 1",
      "postalCode": "10000",
      "primary": true,
      "state": "state"
    },
    "destinationPoint": {
      "coordinates": [
        -3,
        69
      ],
      "line1": "Address 1",
      "city": "City 2",
      "postalCode": "20000",
      "primary": false,
      "state": "state"
    },
    "startedAt": "2016-11-01T02:08:01",
    "completedAt": "2016-11-01T05:53:23"
  },
  {
    "status": "completed",
    "missionName": "Lorem Ipsum Mission Title",
    "rating": 4,
    "startingPoint": {
      "coordinates": [
        73,
        56
      ],
      "line1": "Address 1",
      "city": "City 1",
      "postalCode": "10000",
      "primary": true,
      "state": "state"
    },
    "destinationPoint": {
      "coordinates": [
        -3,
        69
      ],
      "line1": "Address 1",
      "city": "City 2",
      "postalCode": "20000",
      "primary": false,
      "state": "state"
    },
    "startedAt": "2016-11-01T02:08:01",
    "completedAt": "2016-11-01T05:53:23"
  },
  {
    "status": "completed",
    "missionName": "Lorem Ipsum Mission Title",
    "rating": 4,
    "startingPoint": {
      "coordinates": [
        73,
        56
      ],
      "line1": "Address 1",
      "city": "City 1",
      "postalCode": "10000",
      "primary": true,
      "state": "state"
    },
    "destinationPoint": {
      "coordinates": [
        -3,
        69
      ],
      "line1": "Address 1",
      "city": "City 2",
      "postalCode": "20000",
      "primary": false,
      "state": "state"
    },
    "startedAt": "2016-11-01T02:08:01",
    "completedAt": "2016-11-01T05:53:23"
  },
  {
    "status": "completed",
    "missionName": "Lorem Ipsum Mission Title",
    "rating": 4,
    "startingPoint": {
      "coordinates": [
        73,
        56
      ],
      "line1": "Address 1",
      "city": "City 1",
      "postalCode": "10000",
      "primary": true,
      "state": "state"
    },
    "destinationPoint": {
      "coordinates": [
        -3,
        69
      ],
      "line1": "Address 1",
      "city": "City 2",
      "postalCode": "20000",
      "primary": false,
      "state": "state"
    },
    "startedAt": "2016-11-01T02:08:01",
    "completedAt": "2016-11-01T05:53:23"
  },
  {
    "status": "completed",
    "missionName": "Lorem Ipsum Mission Title",
    "rating": 4,
    "startingPoint": {
      "coordinates": [
        73,
        56
      ],
      "line1": "Address 1",
      "city": "City 1",
      "postalCode": "10000",
      "primary": true,
      "state": "state"
    },
    "destinationPoint": {
      "coordinates": [
        -3,
        69
      ],
      "line1": "Address 1",
      "city": "City 2",
      "postalCode": "20000",
      "primary": false,
      "state": "state"
    },
    "startedAt": "2016-11-01T02:08:01",
    "completedAt": "2016-11-01T05:53:23"
  },
  {
    "status": "completed",
    "missionName": "Lorem Ipsum Mission Title",
    "rating": 4,
    "startingPoint": {
      "coordinates": [
        73,
        56
      ],
      "line1": "Address 1",
      "city": "City 1",
      "postalCode": "10000",
      "primary": true,
      "state": "state"
    },
    "destinationPoint": {
      "coordinates": [
        -3,
        69
      ],
      "line1": "Address 1",
      "city": "City 2",
      "postalCode": "20000",
      "primary": false,
      "state": "state"
    },
    "startedAt": "2016-11-01T02:08:01",
    "completedAt": "2016-11-01T05:53:23"
  },
  {
    "status": "completed",
    "missionName": "Lorem Ipsum Mission Title",
    "rating": 4,
    "startingPoint": {
      "coordinates": [
        73,
        56
      ],
      "line1": "Address 1",
      "city": "City 1",
      "postalCode": "10000",
      "primary": true,
      "state": "state"
    },
    "destinationPoint": {
      "coordinates": [
        -3,
        69
      ],
      "line1": "Address 1",
      "city": "City 2",
      "postalCode": "20000",
      "primary": false,
      "state": "state"
    },
    "startedAt": "2016-11-01T02:08:01",
    "completedAt": "2016-11-01T05:53:23"
  }
]
